{"type": "FeatureCollection", "features": [{"type": "Feature", "geometry": {"type": "LineString", "coordinates": [[37.744923, 55.6509222], [37.7451351, 55.6509481], [37.7456453, 55.6510103], [37.7465193, 55.6511169], [37.7465672, 55.6511227], [37.7471347, 55.6511907], [37.7477037, 55.6512577], [37.7478369, 55.6512761], [37.7480132, 55.6512929], [37.7483841, 55.6513407], [37.7488633, 55.6513953], [37.7489468, 55.6514088], [37.7497324, 55.6515363], [37.7499671, 55.6515835], [37.7503914, 55.6516842], [37.7506073, 55.6517447], [37.7508126, 55.6518159], [37.75098, 55.6518726]]}, "properties": {"id": "h1", "name": "Модельная теплотрасса h1 (вдоль Новомарьинская улица)", "source": "derived: along main road (OSM pipelines absent)"}}, {"type": "Feature", "geometry": {"type": "LineString", "coordinates": [[37.7525225, 55.648469], [37.7525708, 55.6483473], [37.7528371, 55.6476759], [37.7529026, 55.6475107], [37.7529435, 55.6474077], [37.7530521, 55.647134], [37.7530879, 55.6470437], [37.7531495, 55.6468884], [37.75316, 55.6468619], [37.7533997, 55.6462577], [37.7535799, 55.6458032], [37.7536007, 55.6457508], [37.7536663, 55.6455855], [37.753833, 55.6451651], [37.7539749, 55.6448073], [37.7540223, 55.6446878]]}, "properties": {"id": "h2", "name": "Модельная теплотрасса h2 (вдоль Луговой проезд)", "source": "derived: along main road (OSM pipelines absent)"}}]}