{"type": "FeatureCollection", "features": [{"type": "Feature", "geometry": {"type": "LineString", "coordinates": [[37.7437491, 55.650775], [37.7441281, 55.6508253]]}, "properties": {"id": "r22997756", "name": "Новомарьинская улица", "highway": "tertiary"}}, {"type": "Feature", "geometry": {"type": "LineString", "coordinates": [[37.7507879, 55.6520678], [37.7508322, 55.6520243], [37.75098, 55.6518726]]}, "properties": {"id": "r22998752", "name": "", "highway": "service"}}, {"type": "Feature", "geometry": {"type": "LineString", "coordinates": [[37.7522164, 55.6492349], [37.7518857, 55.6491928], [37.7509802, 55.6490774], [37.7509215, 55.6490699], [37.7506274, 55.6490324], [37.7499451, 55.6489455], [37.7489889, 55.6488236], [37.7478195, 55.6486746], [37.7476264, 55.64865], [37.7475393, 55.6486389], [37.7464811, 55.648504], [37.7462516, 55.6484748], [37.7462215, 55.6484709]]}, "properties": {"id": "r23097094", "name": "Марьинский бульвар", "highway": "residential"}}, {"type": "Feature", "geometry": {"type": "LineString", "coordinates": [[37.7466828, 55.6477341], [37.7469738, 55.6477721], [37.7480711, 55.6479099], [37.7490122, 55.6480281], [37.7490966, 55.6480387], [37.749273, 55.6480608], [37.7502728, 55.6481864], [37.7503653, 55.648198], [37.7507263, 55.6482434], [37.7509165, 55.6482673], [37.7512763, 55.6483125], [37.7514609, 55.6483357], [37.7521698, 55.6484247], [37.7525225, 55.648469]]}, "properties": {"id": "r23097097", "name": "Марьинский бульвар", "highway": "residential"}}, {"type": "Feature", "geometry": {"type": "LineString", "coordinates": [[37.744923, 55.6509222], [37.7451189, 55.6503971], [37.7451835, 55.6502239], [37.7452068, 55.6501615], [37.7454123, 55.6496106], [37.7455956, 55.6491033]]}, "properties": {"id": "r23124975", "name": "Люблинская улица (дублёр)", "highway": "tertiary"}}, {"type": "Feature", "geometry": {"type": "LineString", "coordinates": [[37.745843, 55.6484227], [37.7459654, 55.6480894], [37.7459757, 55.6480614]]}, "properties": {"id": "r23124983", "name": "Люблинская улица (дублёр)", "highway": "tertiary"}}, {"type": "Feature", "geometry": {"type": "LineString", "coordinates": [[37.7403484, 55.655716], [37.7404426, 55.6555305], [37.7408639, 55.6544582], [37.7409213, 55.6543096], [37.741074, 55.6539141]]}, "properties": {"id": "r23125016", "name": "Люблинская улица (дублёр)", "highway": "tertiary"}}, {"type": "Feature", "geometry": {"type": "LineString", "coordinates": [[37.743684, 55.6474287], [37.7446344, 55.6475157], [37.7447151, 55.6475231]]}, "properties": {"id": "r23125049", "name": "", "highway": "tertiary"}}, {"type": "Feature", "geometry": {"type": "LineString", "coordinates": [[37.74575, 55.6486854], [37.7446958, 55.6485558], [37.7446078, 55.6485449]]}, "properties": {"id": "r23125068", "name": "", "highway": "tertiary"}}, {"type": "Feature", "geometry": {"type": "LineString", "coordinates": [[37.741161, 55.6472364], [37.742881, 55.6473647]]}, "properties": {"id": "r23211426", "name": "Новочеркасский бульвар", "highway": "tertiary"}}, {"type": "Feature", "geometry": {"type": "LineString", "coordinates": [[37.7397746, 55.6479444], [37.7395519, 55.6479228], [37.7388736, 55.6478572], [37.7375003, 55.6477239], [37.7374223, 55.6477134], [37.737087, 55.6476853], [37.7369418, 55.6476746], [37.7361264, 55.6476082], [37.7359776, 55.6475968], [37.7358466, 55.6475843], [37.735, 55.6475301]]}, "properties": {"id": "r23211440", "name": "Новочеркасский бульвар", "highway": "tertiary"}}, {"type": "Feature", "geometry": {"type": "LineString", "coordinates": [[37.7397746, 55.6479444], [37.7398081, 55.6478008], [37.7398503, 55.6476334], [37.739864, 55.6475718]]}, "properties": {"id": "r23211453", "name": "", "highway": "tertiary"}}, {"type": "Feature", "geometry": {"type": "LineString", "coordinates": [[37.7432932, 55.6483855], [37.7428792, 55.648333], [37.7423136, 55.6482613], [37.7419375, 55.6482136]]}, "properties": {"id": "r23211537", "name": "Новочеркасский бульвар", "highway": "tertiary"}}, {"type": "Feature", "geometry": {"type": "LineString", "coordinates": [[37.7463413, 55.644], [37.7459438, 55.6449608], [37.745329, 55.6465903], [37.7452688, 55.6467476]]}, "properties": {"id": "r24941547", "name": "Люблинская улица", "highway": "primary"}}, {"type": "Feature", "geometry": {"type": "LineString", "coordinates": [[37.755, 55.6558371], [37.7548037, 55.656]]}, "properties": {"id": "r26618784", "name": "Мячковский бульвар", "highway": "residential"}}, {"type": "Feature", "geometry": {"type": "LineString", "coordinates": [[37.7525708, 55.6483473], [37.7529152, 55.6483835], [37.7535183, 55.6484413], [37.7537678, 55.6484666], [37.7541637, 55.6485068], [37.7548276, 55.6485719], [37.7549455, 55.6486001], [37.755, 55.6486177]]}, "properties": {"id": "r27198563", "name": "Марьинский бульвар", "highway": "residential"}}, {"type": "Feature", "geometry": {"type": "LineString", "coordinates": [[37.7522547, 55.6491393], [37.7525696, 55.6492021], [37.7531465, 55.6492817], [37.7534499, 55.6493199], [37.7539703, 55.6494003], [37.754204, 55.6494494], [37.7545319, 55.6495153]]}, "properties": {"id": "r27385318", "name": "Марьинский бульвар", "highway": "service"}}, {"type": "Feature", "geometry": {"type": "LineString", "coordinates": [[37.7441281, 55.6508253], [37.7440726, 55.6509711], [37.7437891, 55.6516744], [37.7432352, 55.6531043], [37.7430957, 55.6534269]]}, "properties": {"id": "r27385845", "name": "Люблинская улица (дублёр)", "highway": "tertiary"}}, {"type": "Feature", "geometry": {"type": "LineString", "coordinates": [[37.742662, 55.6546297], [37.7422615, 55.6549561], [37.7420534, 55.6551257]]}, "properties": {"id": "r27390659", "name": "", "highway": "tertiary"}}, {"type": "Feature", "geometry": {"type": "LineString", "coordinates": [[37.7428631, 55.6531002], [37.7430224, 55.6533239], [37.7430957, 55.6534269]]}, "properties": {"id": "r27390750", "name": "", "highway": "tertiary"}}, {"type": "Feature", "geometry": {"type": "LineString", "coordinates": [[37.7418933, 55.6548698], [37.7415727, 55.6545448], [37.7411183, 55.6539713], [37.741074, 55.6539141]]}, "properties": {"id": "r27391216", "name": "", "highway": "tertiary"}}, {"type": "Feature", "geometry": {"type": "LineString", "coordinates": [[37.7425958, 55.6500815], [37.742279, 55.6500622], [37.7413664, 55.6499424], [37.7413075, 55.6499339], [37.7403064, 55.6498043], [37.7401815, 55.6497842], [37.7400461, 55.6500399], [37.7400245, 55.6501584], [37.7401553, 55.6503016], [37.7402275, 55.6503832], [37.7402621, 55.6504675], [37.740299, 55.6505168], [37.7402641, 55.6506203], [37.740208, 55.650795], [37.7401559, 55.6510329], [37.7400067, 55.6515257], [37.7399746, 55.6516319], [37.7398743, 55.651882], [37.7396495, 55.6524426], [37.7404078, 55.6525473], [37.7413342, 55.652658], [37.7415421, 55.6527021]]}, "properties": {"id": "r29449536", "name": "", "highway": "service"}}, {"type": "Feature", "geometry": {"type": "LineString", "coordinates": [[37.7388736, 55.6478572], [37.7388636, 55.6479884], [37.7388635, 55.6480701], [37.7388503, 55.6482064], [37.7384144, 55.6484237], [37.7383691, 55.6487872], [37.7383348, 55.649063], [37.7385013, 55.64937], [37.7384359, 55.650525], [37.7384366, 55.650618], [37.7384126, 55.6506638], [37.7382552, 55.6507922], [37.7382191, 55.6514883], [37.7382124, 55.6516172], [37.7381757, 55.6523238], [37.7388064, 55.6523502], [37.7390258, 55.652381], [37.7390647, 55.6523848], [37.7395604, 55.6524337], [37.7396495, 55.6524426]]}, "properties": {"id": "r29449537", "name": "", "highway": "service"}}, {"type": "Feature", "geometry": {"type": "LineString", "coordinates": [[37.7390258, 55.652381], [37.738921, 55.6526315], [37.7387929, 55.6526631], [37.7378823, 55.6526502], [37.7378407, 55.6527021], [37.7377485, 55.652817], [37.7376384, 55.6533883], [37.7373941, 55.6539442], [37.7372197, 55.6541613], [37.7371385, 55.6542537], [37.7370282, 55.6544008]]}, "properties": {"id": "r29449538", "name": "", "highway": "service"}}, {"type": "Feature", "geometry": {"type": "LineString", "coordinates": [[37.7446078, 55.6485449], [37.7443833, 55.6485199], [37.74433, 55.6485139]]}, "properties": {"id": "r30473805", "name": "", "highway": "tertiary"}}, {"type": "Feature", "geometry": {"type": "LineString", "coordinates": [[37.74433, 55.6485139], [37.7432932, 55.6483855]]}, "properties": {"id": "r30473806", "name": "", "highway": "tertiary"}}, {"type": "Feature", "geometry": {"type": "LineString", "coordinates": [[37.7442702, 55.649437], [37.7440852, 55.6499265], [37.7437491, 55.650775]]}, "properties": {"id": "r30473808", "name": "Люблинская улица", "highway": "primary"}}, {"type": "Feature", "geometry": {"type": "LineString", "coordinates": [[37.7447151, 55.6475231], [37.744778, 55.6473852], [37.744971, 55.6468636], [37.7459541, 55.6442854], [37.7460794, 55.644]]}, "properties": {"id": "r30473990", "name": "Люблинская улица", "highway": "primary"}}, {"type": "Feature", "geometry": {"type": "LineString", "coordinates": [[37.7376384, 55.6533883], [37.7358867, 55.653231], [37.735505, 55.6531705], [37.7354533, 55.6530723], [37.7354501, 55.6527675], [37.7354661, 55.6525094], [37.7354529, 55.652464], [37.7352903, 55.6524232], [37.7350223, 55.6523777], [37.735, 55.652376]]}, "properties": {"id": "r32731826", "name": "", "highway": "service"}}, {"type": "Feature", "geometry": {"type": "LineString", "coordinates": [[37.7449713, 55.6475466], [37.7446078, 55.6485449]]}, "properties": {"id": "r38633363", "name": "Люблинская улица", "highway": "primary"}}, {"type": "Feature", "geometry": {"type": "LineString", "coordinates": [[37.74433, 55.6485139], [37.7447151, 55.6475231]]}, "properties": {"id": "r38633364", "name": "Люблинская улица", "highway": "primary"}}, {"type": "Feature", "geometry": {"type": "LineString", "coordinates": [[37.7414034, 55.656], [37.7416974, 55.6553217], [37.7418933, 55.6548698], [37.74225, 55.6539425], [37.7432186, 55.6514322], [37.7435144, 55.6506654], [37.7440292, 55.6493069], [37.74433, 55.6485139]]}, "properties": {"id": "r38634701", "name": "Люблинская улица", "highway": "primary"}}, {"type": "Feature", "geometry": {"type": "LineString", "coordinates": [[37.742662, 55.6546297], [37.7425951, 55.654777], [37.7423858, 55.6553808], [37.7421179, 55.656]]}, "properties": {"id": "r38872502", "name": "Люблинская улица (дублёр)", "highway": "tertiary"}}, {"type": "Feature", "geometry": {"type": "LineString", "coordinates": [[37.7544268, 55.656], [37.7534772, 55.6556341], [37.75337, 55.655592]]}, "properties": {"id": "r40520069", "name": "", "highway": "service"}}, {"type": "Feature", "geometry": {"type": "LineString", "coordinates": [[37.735, 55.6536065], [37.7351599, 55.6536675], [37.7358734, 55.6539475], [37.7370282, 55.6544008], [37.7373966, 55.6545471], [37.7382958, 55.6549008], [37.7393298, 55.6553114], [37.7403484, 55.655716]]}, "properties": {"id": "r45510845", "name": "улица Перерва", "highway": "secondary"}}, {"type": "Feature", "geometry": {"type": "LineString", "coordinates": [[37.735, 55.646672], [37.7357602, 55.6467088]]}, "properties": {"id": "r45510847", "name": "Новочеркасский бульвар", "highway": "tertiary"}}, {"type": "Feature", "geometry": {"type": "LineString", "coordinates": [[37.7403484, 55.655716], [37.7410924, 55.656]]}, "properties": {"id": "r45511221", "name": "улица Перерва", "highway": "secondary"}}, {"type": "Feature", "geometry": {"type": "LineString", "coordinates": [[37.7454123, 55.6496106], [37.7450404, 55.649585], [37.7448824, 55.6495734], [37.7446809, 55.6495588], [37.7446018, 55.6495934], [37.7444653, 55.6499715], [37.7440852, 55.6499265]]}, "properties": {"id": "r45683570", "name": "", "highway": "service"}}, {"type": "Feature", "geometry": {"type": "LineString", "coordinates": [[37.7444653, 55.6499715], [37.7447233, 55.650005], [37.7448694, 55.6500204], [37.7450404, 55.649585]]}, "properties": {"id": "r45683571", "name": "", "highway": "service"}}, {"type": "Feature", "geometry": {"type": "LineString", "coordinates": [[37.7401815, 55.6497842], [37.7403142, 55.6494697], [37.7403237, 55.6494098]]}, "properties": {"id": "r45783557", "name": "", "highway": "service"}}, {"type": "Feature", "geometry": {"type": "LineString", "coordinates": [[37.7411776, 55.644], [37.7411898, 55.6441339], [37.7411897, 55.6441711], [37.7411892, 55.644475], [37.7411255, 55.6445371], [37.7410992, 55.6452025], [37.7410135, 55.6460006], [37.7409884, 55.6463678], [37.7409829, 55.6465077], [37.7409656, 55.646637], [37.740963, 55.6466574], [37.7409137, 55.646855], [37.7409158, 55.6469479], [37.7409178, 55.6470332], [37.7409219, 55.647217]]}, "properties": {"id": "r46648408", "name": "", "highway": "service"}}, {"type": "Feature", "geometry": {"type": "LineString", "coordinates": [[37.7440969, 55.6462032], [37.7438684, 55.6461788], [37.7436119, 55.6461437], [37.743102, 55.6460891], [37.7430333, 55.6460805], [37.742802, 55.6460514], [37.7427071, 55.6460439], [37.7422589, 55.6460319], [37.7421765, 55.6460278], [37.7416148, 55.6460155], [37.741136, 55.6459991], [37.7410135, 55.6460006]]}, "properties": {"id": "r46648422", "name": "", "highway": "service"}}, {"type": "Feature", "geometry": {"type": "LineString", "coordinates": [[37.7446636, 55.6446453], [37.7444179, 55.6446088], [37.7442258, 55.6445993], [37.743632, 55.6445318], [37.7433746, 55.6445092], [37.7432233, 55.6445008], [37.7431104, 55.6444946], [37.7429858, 55.6444918], [37.742441, 55.6444793], [37.7417385, 55.6444775], [37.7415771, 55.6444725], [37.7411892, 55.644475]]}, "properties": {"id": "r46648430", "name": "", "highway": "service"}}, {"type": "Feature", "geometry": {"type": "LineString", "coordinates": [[37.7433746, 55.6445092], [37.7432542, 55.6447621], [37.7430764, 55.6452618], [37.7428902, 55.6457801], [37.742802, 55.6460514]]}, "properties": {"id": "r46648463", "name": "", "highway": "service"}}, {"type": "Feature", "geometry": {"type": "LineString", "coordinates": [[37.7432542, 55.6447621], [37.7419862, 55.6447409], [37.7417351, 55.6447408], [37.7417053, 55.6451961], [37.7416534, 55.6456732], [37.7422203, 55.6456921], [37.7421765, 55.6460278]]}, "properties": {"id": "r46648469", "name": "", "highway": "service"}}, {"type": "Feature", "geometry": {"type": "LineString", "coordinates": [[37.7380411, 55.6469344], [37.738067, 55.6466979], [37.738085, 55.6465842], [37.7380417, 55.6464525], [37.7380462, 55.6457454], [37.7379493, 55.645742], [37.7377783, 55.6457291], [37.737655, 55.6457267], [37.7375964, 55.6457255], [37.7367009, 55.6457079], [37.7363539, 55.6457011], [37.7353783, 55.6456701], [37.7350549, 55.6456685], [37.735, 55.6456682]]}, "properties": {"id": "r46679209", "name": "", "highway": "service"}}, {"type": "Feature", "geometry": {"type": "LineString", "coordinates": [[37.7380462, 55.6457454], [37.7381297, 55.6456526], [37.738225, 55.6455907], [37.7383283, 55.645544], [37.7384729, 55.6455451], [37.7394277, 55.6455586], [37.7395888, 55.6455894], [37.7396675, 55.6456515]]}, "properties": {"id": "r46679223", "name": "", "highway": "service"}}, {"type": "Feature", "geometry": {"type": "LineString", "coordinates": [[37.7426112, 55.644], [37.742598, 55.6440431], [37.7424588, 55.6441857], [37.742441, 55.6444793]]}, "properties": {"id": "r46774499", "name": "", "highway": "service"}}, {"type": "Feature", "geometry": {"type": "LineString", "coordinates": [[37.7408146, 55.644], [37.7407955, 55.6441157], [37.7404496, 55.6441235]]}, "properties": {"id": "r46945086", "name": "", "highway": "service"}}, {"type": "Feature", "geometry": {"type": "LineString", "coordinates": [[37.743102, 55.6460891], [37.7428772, 55.6465215], [37.7428678, 55.6465396], [37.7423384, 55.6467534], [37.7416075, 55.6466708], [37.7414552, 55.6466561], [37.7413972, 55.6466505], [37.7412797, 55.6466391], [37.7411893, 55.6466384], [37.7409656, 55.646637]]}, "properties": {"id": "r46945090", "name": "", "highway": "service"}}, {"type": "Feature", "geometry": {"type": "LineString", "coordinates": [[37.7436119, 55.6461437], [37.7434013, 55.646677], [37.7433837, 55.6467209], [37.7425593, 55.6470243], [37.7424156, 55.6470744], [37.7413342, 55.6469926], [37.741012, 55.6469614], [37.7409158, 55.6469479]]}, "properties": {"id": "r46945092", "name": "", "highway": "service"}}, {"type": "Feature", "geometry": {"type": "LineString", "coordinates": [[37.743632, 55.6445318], [37.7438424, 55.6440134], [37.7438275, 55.644]]}, "properties": {"id": "r46945155", "name": "", "highway": "service"}}, {"type": "Feature", "geometry": {"type": "LineString", "coordinates": [[37.7510119, 55.6501873], [37.7506382, 55.6501444], [37.7505778, 55.6501375], [37.7500939, 55.6500843], [37.7495238, 55.6500056], [37.7492137, 55.6499607], [37.7486691, 55.6498928], [37.7486125, 55.6498634], [37.7485981, 55.6498295], [37.7485895, 55.6498093], [37.7488054, 55.6492449], [37.7488585, 55.649123], [37.7489643, 55.6488812], [37.7489889, 55.6488236]]}, "properties": {"id": "r47171776", "name": "", "highway": "service"}}, {"type": "Feature", "geometry": {"type": "LineString", "coordinates": [[37.7480132, 55.6512929], [37.7480873, 55.6511356], [37.7483372, 55.6504672]]}, "properties": {"id": "r47171777", "name": "", "highway": "service"}}, {"type": "Feature", "geometry": {"type": "LineString", "coordinates": [[37.7465193, 55.6511169], [37.7465952, 55.650933], [37.7468514, 55.6503211], [37.7463717, 55.6498878], [37.74651, 55.6494758], [37.7472906, 55.6491785]]}, "properties": {"id": "r47171779", "name": "", "highway": "service"}}, {"type": "Feature", "geometry": {"type": "LineString", "coordinates": [[37.7483372, 55.6504672], [37.7484777, 55.6501299]]}, "properties": {"id": "r47171780", "name": "", "highway": "service"}}, {"type": "Feature", "geometry": {"type": "LineString", "coordinates": [[37.74225, 55.6539425], [37.7420273, 55.6537753], [37.7419279, 55.6537631], [37.7414135, 55.6537001]]}, "properties": {"id": "r47171783", "name": "", "highway": "service"}}, {"type": "Feature", "geometry": {"type": "LineString", "coordinates": [[37.7411668, 55.6536739], [37.7414135, 55.6537001]]}, "properties": {"id": "r47171784", "name": "", "highway": "service"}}, {"type": "Feature", "geometry": {"type": "LineString", "coordinates": [[37.7413279, 55.6532568], [37.7415599, 55.6533029], [37.7414135, 55.6537001]]}, "properties": {"id": "r47171785", "name": "", "highway": "service"}}, {"type": "Feature", "geometry": {"type": "LineString", "coordinates": [[37.7515624, 55.6508717], [37.7516515, 55.6506487], [37.7517233, 55.650469], [37.7517619, 55.6503724], [37.7518004, 55.650276], [37.752019, 55.649729], [37.752195, 55.6492883], [37.7522164, 55.6492349], [37.7522328, 55.6491941], [37.7522547, 55.6491393], [37.7525052, 55.6485123], [37.7525225, 55.648469]]}, "properties": {"id": "r47171787", "name": "Луговой проезд", "highway": "tertiary"}}, {"type": "Feature", "geometry": {"type": "LineString", "coordinates": [[37.7497324, 55.6515363], [37.7498245, 55.651402], [37.749951, 55.6510366], [37.750232, 55.6509709], [37.7504645, 55.650994], [37.7505887, 55.6509158], [37.7507511, 55.6508311], [37.7507951, 55.6507477], [37.7509792, 55.650275], [37.7510119, 55.6501873], [37.7514951, 55.6502441], [37.7516792, 55.6502626], [37.7518004, 55.650276]]}, "properties": {"id": "r47171790", "name": "", "highway": "service"}}, {"type": "Feature", "geometry": {"type": "LineString", "coordinates": [[37.7507511, 55.6508311], [37.7512002, 55.650886], [37.7515371, 55.6509259]]}, "properties": {"id": "r47171791", "name": "", "highway": "service"}}, {"type": "Feature", "geometry": {"type": "LineString", "coordinates": [[37.7505778, 55.6501375], [37.7506931, 55.649859], [37.7507638, 55.6498383], [37.7510819, 55.6498784], [37.7511764, 55.6498464], [37.7512839, 55.649495], [37.7512378, 55.6494302], [37.7508734, 55.6493387], [37.7509569, 55.6491345], [37.7509802, 55.6490774]]}, "properties": {"id": "r47171792", "name": "", "highway": "service"}}, {"type": "Feature", "geometry": {"type": "LineString", "coordinates": [[37.7498937, 55.650604], [37.7500641, 55.6501616], [37.7500939, 55.6500843]]}, "properties": {"id": "r47171793", "name": "", "highway": "service"}}, {"type": "Feature", "geometry": {"type": "LineString", "coordinates": [[37.7495238, 55.6500056], [37.74962, 55.6497177], [37.7491575, 55.6496452], [37.7493548, 55.6492254], [37.7498217, 55.6492705], [37.749923, 55.6490031], [37.7499451, 55.6489455]]}, "properties": {"id": "r47171794", "name": "", "highway": "service"}}, {"type": "Feature", "geometry": {"type": "LineString", "coordinates": [[37.744447, 55.644], [37.7444653, 55.6440158], [37.7442258, 55.6445993], [37.7440892, 55.6449436], [37.7441498, 55.6449778], [37.7440142, 55.6453529], [37.7438832, 55.6457413], [37.7440101, 55.6457612], [37.7442446, 55.6457844]]}, "properties": {"id": "r47205069", "name": "", "highway": "service"}}, {"type": "Feature", "geometry": {"type": "LineString", "coordinates": [[37.7433005, 55.6459923], [37.7438957, 55.6460769], [37.7441303, 55.6461053]]}, "properties": {"id": "r47205092", "name": "", "highway": "service"}}, {"type": "Feature", "geometry": {"type": "LineString", "coordinates": [[37.7380343, 55.644], [37.7380175, 55.6442282], [37.737352, 55.6442207]]}, "properties": {"id": "r47584508", "name": "", "highway": "service"}}, {"type": "Feature", "geometry": {"type": "LineString", "coordinates": [[37.7411255, 55.6445371], [37.7410152, 55.644532], [37.7409466, 55.6445336]]}, "properties": {"id": "r47584674", "name": "", "highway": "service"}}, {"type": "Feature", "geometry": {"type": "LineString", "coordinates": [[37.7351782, 55.6443021], [37.7352847, 55.6443052], [37.7359376, 55.644314], [37.7360301, 55.6443152]]}, "properties": {"id": "r47805818", "name": "", "highway": "service"}}, {"type": "Feature", "geometry": {"type": "LineString", "coordinates": [[37.7409137, 55.646855], [37.7407237, 55.6468468], [37.7388573, 55.6466423], [37.7383349, 55.6466015], [37.738085, 55.6465842]]}, "properties": {"id": "r48037975", "name": "", "highway": "service"}}, {"type": "Feature", "geometry": {"type": "LineString", "coordinates": [[37.7409829, 55.6465077], [37.7408836, 55.6465051], [37.7400779, 55.646483], [37.7398159, 55.6464189], [37.7393299, 55.6464083], [37.7392311, 55.6463727], [37.7388618, 55.6463727], [37.7386267, 55.6463173], [37.7386142, 55.646219], [37.7386294, 55.6458795], [37.7396616, 55.6458981], [37.7396675, 55.6456515]]}, "properties": {"id": "r48037990", "name": "", "highway": "service"}}, {"type": "Feature", "geometry": {"type": "LineString", "coordinates": [[37.7396616, 55.6458981], [37.7396687, 55.6461865], [37.7398159, 55.6464189]]}, "properties": {"id": "r48038005", "name": "", "highway": "service"}}, {"type": "Feature", "geometry": {"type": "LineString", "coordinates": [[37.7383475, 55.6453912], [37.7390127, 55.6454023], [37.7390277, 55.6451383]]}, "properties": {"id": "r48038014", "name": "", "highway": "service"}}, {"type": "Feature", "geometry": {"type": "LineString", "coordinates": [[37.7383743, 55.6447924], [37.7383475, 55.6453912], [37.7383448, 55.6454506]]}, "properties": {"id": "r48038100", "name": "", "highway": "service"}}, {"type": "Feature", "geometry": {"type": "LineString", "coordinates": [[37.7408927, 55.6459976], [37.7407135, 55.6459933], [37.7407265, 55.645779], [37.7407278, 55.6457147], [37.7407278, 55.6456307], [37.7407278, 55.645425], [37.7400875, 55.6454102]]}, "properties": {"id": "r48038138", "name": "", "highway": "service"}}, {"type": "Feature", "geometry": {"type": "LineString", "coordinates": [[37.7374848, 55.6461807], [37.7372408, 55.6461778], [37.7372253, 55.6466328], [37.7371904, 55.6468324]]}, "properties": {"id": "r48038387", "name": "", "highway": "service"}}, {"type": "Feature", "geometry": {"type": "LineString", "coordinates": [[37.7363539, 55.6457011], [37.736312, 55.6456585], [37.7362488, 55.6455944], [37.7360567, 55.6455874]]}, "properties": {"id": "r48038430", "name": "", "highway": "service"}}, {"type": "Feature", "geometry": {"type": "LineString", "coordinates": [[37.7367009, 55.6457079], [37.7367525, 55.6456713], [37.7368562, 55.6455979], [37.7370173, 55.6455979]]}, "properties": {"id": "r48038435", "name": "", "highway": "service"}}, {"type": "Feature", "geometry": {"type": "LineString", "coordinates": [[37.7353783, 55.6456701], [37.7354552, 55.6448683]]}, "properties": {"id": "r48038488", "name": "", "highway": "service"}}, {"type": "Feature", "geometry": {"type": "LineString", "coordinates": [[37.7370214, 55.646813], [37.7370424, 55.6466109], [37.7370641, 55.6463852], [37.7357629, 55.6463438], [37.7357804, 55.6460478], [37.7370912, 55.6460627], [37.7371707, 55.6460636]]}, "properties": {"id": "r48043194", "name": "", "highway": "service"}}, {"type": "Feature", "geometry": {"type": "LineString", "coordinates": [[37.735, 55.6447577], [37.7350002, 55.6447556], [37.7350441, 55.6442983], [37.7350668, 55.644]]}, "properties": {"id": "r48043620", "name": "", "highway": "service"}}, {"type": "Feature", "geometry": {"type": "LineString", "coordinates": [[37.7383743, 55.6447924], [37.7390507, 55.6448029]]}, "properties": {"id": "r48171211", "name": "", "highway": "service"}}, {"type": "Feature", "geometry": {"type": "LineString", "coordinates": [[37.749951, 55.6510366], [37.748835, 55.6508755], [37.7489696, 55.650551], [37.7491766, 55.6500516], [37.7492137, 55.6499607]]}, "properties": {"id": "r49412834", "name": "", "highway": "service"}}, {"type": "Feature", "geometry": {"type": "LineString", "coordinates": [[37.7381172, 55.656], [37.7366221, 55.6554894], [37.7365335, 55.6554592], [37.7363875, 55.6554093]]}, "properties": {"id": "r51701982", "name": "", "highway": "service"}}, {"type": "Feature", "geometry": {"type": "LineString", "coordinates": [[37.735, 55.6547686], [37.7355619, 55.6549648], [37.7364461, 55.6552608], [37.7364708, 55.655298], [37.7364679, 55.6553488], [37.7363875, 55.6554093]]}, "properties": {"id": "r51701986", "name": "", "highway": "service"}}, {"type": "Feature", "geometry": {"type": "LineString", "coordinates": [[37.7363875, 55.6554093], [37.7354391, 55.6550754], [37.735, 55.6549262]]}, "properties": {"id": "r51701987", "name": "", "highway": "service"}}, {"type": "Feature", "geometry": {"type": "LineString", "coordinates": [[37.755, 55.6449148], [37.7547963, 55.6448578], [37.7543906, 55.6447625], [37.7540223, 55.6446878]]}, "properties": {"id": "r55496000", "name": "Поречная улица", "highway": "secondary"}}, {"type": "Feature", "geometry": {"type": "LineString", "coordinates": [[37.735, 55.6502866], [37.7354431, 55.6502976], [37.7362802, 55.6503183], [37.7367244, 55.6503504]]}, "properties": {"id": "r55884816", "name": "", "highway": "service"}}, {"type": "Feature", "geometry": {"type": "LineString", "coordinates": [[37.735, 55.6493214], [37.7352192, 55.6493255], [37.737058, 55.6493596]]}, "properties": {"id": "r55884818", "name": "", "highway": "service"}}, {"type": "Feature", "geometry": {"type": "LineString", "coordinates": [[37.7528795, 55.656], [37.7531544, 55.6557715], [37.75337, 55.655592]]}, "properties": {"id": "r56299881", "name": "Мячковский бульвар", "highway": "tertiary"}}, {"type": "Feature", "geometry": {"type": "LineString", "coordinates": [[37.7478369, 55.6512761], [37.7477677, 55.6514326], [37.7477251, 55.6515419], [37.7476386, 55.6516226], [37.7474291, 55.6521047], [37.7473344, 55.6521389], [37.747242, 55.6523408], [37.7471807, 55.6523921], [37.747006, 55.6524911], [37.7464439, 55.6526932], [37.7457953, 55.652598]]}, "properties": {"id": "r81371004", "name": "", "highway": "service"}}, {"type": "Feature", "geometry": {"type": "LineString", "coordinates": [[37.7464439, 55.6526932], [37.746532, 55.6527499], [37.7466554, 55.6527844], [37.7466747, 55.6528627], [37.7465982, 55.6530357], [37.7461935, 55.6529908], [37.7459795, 55.6530426], [37.7459161, 55.6532434]]}, "properties": {"id": "r82123988", "name": "", "highway": "service"}}, {"type": "Feature", "geometry": {"type": "LineString", "coordinates": [[37.7502439, 55.6530361], [37.7500867, 55.6530736], [37.7488296, 55.6529246], [37.7485604, 55.6529098], [37.7475728, 55.652833], [37.74702, 55.6527631], [37.7469188, 55.6527417], [37.7468288, 55.652731], [37.7466554, 55.6527844]]}, "properties": {"id": "r82490367", "name": "", "highway": "service"}}, {"type": "Feature", "geometry": {"type": "LineString", "coordinates": [[37.7403841, 55.6480117], [37.7404126, 55.6479134], [37.740433, 55.6478429]]}, "properties": {"id": "r96035258", "name": "", "highway": "service"}}, {"type": "Feature", "geometry": {"type": "LineString", "coordinates": [[37.7449713, 55.6475466], [37.7461213, 55.647665]]}, "properties": {"id": "r96375396", "name": "", "highway": "tertiary"}}, {"type": "Feature", "geometry": {"type": "LineString", "coordinates": [[37.7440969, 55.6462032], [37.7441303, 55.6461053], [37.7442446, 55.6457844], [37.7446636, 55.6446453], [37.7448385, 55.6441817]]}, "properties": {"id": "r98572500", "name": "Люблинская улица (дублёр)", "highway": "tertiary"}}, {"type": "Feature", "geometry": {"type": "LineString", "coordinates": [[37.7400461, 55.6500399], [37.7398565, 55.6500149], [37.7396798, 55.6499913], [37.7390725, 55.64991], [37.7390564, 55.6502414], [37.7390357, 55.6506663], [37.7387891, 55.6507264], [37.7384828, 55.6506755], [37.7384126, 55.6506638]]}, "properties": {"id": "r100971079", "name": "", "highway": "service"}}, {"type": "Feature", "geometry": {"type": "LineString", "coordinates": [[37.7403142, 55.6494697], [37.7411648, 55.6495471], [37.741451, 55.6494887], [37.7417361, 55.6493691], [37.7418526, 55.6491804], [37.7419237, 55.648996], [37.7415792, 55.6486662], [37.740703, 55.648521]]}, "properties": {"id": "r100971080", "name": "", "highway": "service"}}, {"type": "Feature", "geometry": {"type": "LineString", "coordinates": [[37.735, 55.648485], [37.7350749, 55.6485295], [37.7357802, 55.6485558], [37.735792, 55.6483299], [37.7358222, 55.6477499], [37.7358268, 55.6477133], [37.7358466, 55.6475843]]}, "properties": {"id": "r100971081", "name": "", "highway": "service"}}, {"type": "Feature", "geometry": {"type": "LineString", "coordinates": [[37.7357802, 55.6485558], [37.7367076, 55.6485905], [37.7368808, 55.6485276], [37.7369113, 55.6478076], [37.7369418, 55.6476746]]}, "properties": {"id": "r100971082", "name": "", "highway": "service"}}, {"type": "Feature", "geometry": {"type": "LineString", "coordinates": [[37.7377325, 55.6506308], [37.737658, 55.651845], [37.7376138, 55.6524267], [37.7378056, 55.6525884], [37.7378407, 55.6527021]]}, "properties": {"id": "r100971195", "name": "", "highway": "service"}}, {"type": "Feature", "geometry": {"type": "LineString", "coordinates": [[37.7376384, 55.6533883], [37.7379732, 55.6534157], [37.7385959, 55.6538923], [37.7388826, 55.6539961], [37.7395294, 55.6540557], [37.7397654, 55.6540497], [37.74072, 55.653738]]}, "properties": {"id": "r100971317", "name": "", "highway": "service"}}, {"type": "Feature", "geometry": {"type": "LineString", "coordinates": [[37.74072, 55.653738], [37.7408256, 55.6534431], [37.7409963, 55.6534616], [37.7412385, 55.6534883]]}, "properties": {"id": "r100971318", "name": "", "highway": "service"}}, {"type": "Feature", "geometry": {"type": "LineString", "coordinates": [[37.7381621, 55.6480724], [37.7377678, 55.6481735], [37.7377352, 55.6481842], [37.7377095, 55.6484702], [37.7378007, 55.6485001], [37.7378606, 55.6485197], [37.7378114, 55.6490605], [37.7377831, 55.6493723]]}, "properties": {"id": "r103186639", "name": "", "highway": "service"}}, {"type": "Feature", "geometry": {"type": "LineString", "coordinates": [[37.7398503, 55.6476334], [37.7397263, 55.6476247], [37.7396533, 55.6476196]]}, "properties": {"id": "r107270434", "name": "", "highway": "service"}}, {"type": "Feature", "geometry": {"type": "LineString", "coordinates": [[37.7471042, 55.6474399], [37.7469928, 55.6477282]]}, "properties": {"id": "r122220832", "name": "", "highway": "service"}}, {"type": "Feature", "geometry": {"type": "LineString", "coordinates": [[37.7469928, 55.6477282], [37.7469888, 55.6477373], [37.7469738, 55.6477721]]}, "properties": {"id": "r122220833", "name": "", "highway": "service"}}, {"type": "Feature", "geometry": {"type": "LineString", "coordinates": [[37.7465978, 55.6464265], [37.7468772, 55.6464515], [37.7475457, 55.6465115], [37.7474285, 55.6468264], [37.7473432, 55.6468182], [37.7471281, 55.6473743], [37.7480578, 55.6474848], [37.748202, 55.6476076], [37.7480848, 55.6478782], [37.7480711, 55.6479099]]}, "properties": {"id": "r122220835", "name": "", "highway": "service"}}, {"type": "Feature", "geometry": {"type": "LineString", "coordinates": [[37.7471281, 55.6473743], [37.7471042, 55.6474399]]}, "properties": {"id": "r122220837", "name": "", "highway": "service"}}, {"type": "Feature", "geometry": {"type": "LineString", "coordinates": [[37.7432932, 55.6483855], [37.7433245, 55.6483081], [37.7436542, 55.6475064], [37.743684, 55.6474287]]}, "properties": {"id": "r131035802", "name": "Люблинская улица (дублёр)", "highway": "tertiary"}}, {"type": "Feature", "geometry": {"type": "LineString", "coordinates": [[37.7462363, 55.6473614], [37.7463051, 55.6471769], [37.7463217, 55.6471325], [37.7465978, 55.6464265], [37.7470494, 55.6452654], [37.7470626, 55.645231], [37.7475357, 55.644]]}, "properties": {"id": "r131035803", "name": "Люблинская улица (дублёр)", "highway": "tertiary"}}, {"type": "Feature", "geometry": {"type": "LineString", "coordinates": [[37.7447151, 55.6475231], [37.7449713, 55.6475466]]}, "properties": {"id": "r131035811", "name": "", "highway": "tertiary"}}, {"type": "Feature", "geometry": {"type": "LineString", "coordinates": [[37.7548276, 55.6485719], [37.754991, 55.6481022], [37.755, 55.6480891]]}, "properties": {"id": "r136028125", "name": "", "highway": "service"}}, {"type": "Feature", "geometry": {"type": "LineString", "coordinates": [[37.7437491, 55.650775], [37.7434595, 55.6515351], [37.7428631, 55.6531002]]}, "properties": {"id": "r136074561", "name": "Люблинская улица", "highway": "primary"}}, {"type": "Feature", "geometry": {"type": "LineString", "coordinates": [[37.7441281, 55.6508253], [37.744923, 55.6509222]]}, "properties": {"id": "r136074564", "name": "Новомарьинская улица", "highway": "tertiary"}}, {"type": "Feature", "geometry": {"type": "LineString", "coordinates": [[37.744923, 55.6509222], [37.7451351, 55.6509481], [37.7456453, 55.6510103], [37.7465193, 55.6511169], [37.7465672, 55.6511227], [37.7471347, 55.6511907], [37.7477037, 55.6512577], [37.7478369, 55.6512761], [37.7480132, 55.6512929], [37.7483841, 55.6513407], [37.7488633, 55.6513953], [37.7489468, 55.6514088], [37.7497324, 55.6515363], [37.7499671, 55.6515835], [37.7503914, 55.6516842], [37.7506073, 55.6517447], [37.7508126, 55.6518159], [37.75098, 55.6518726]]}, "properties": {"id": "r136074565", "name": "Новомарьинская улица", "highway": "tertiary"}}, {"type": "Feature", "geometry": {"type": "LineString", "coordinates": [[37.75098, 55.6518726], [37.7512861, 55.6519919], [37.752394, 55.6524043], [37.7532889, 55.6527364], [37.7536868, 55.6528886], [37.7542963, 55.6531218], [37.7543715, 55.6531506], [37.7547386, 55.6532923], [37.755, 55.6533932]]}, "properties": {"id": "r136163784", "name": "Новомарьинская улица", "highway": "tertiary"}}, {"type": "Feature", "geometry": {"type": "LineString", "coordinates": [[37.7540223, 55.6446878], [37.753763, 55.6446383], [37.753074, 55.6445191], [37.7525774, 55.644451], [37.7523867, 55.6444248], [37.7501977, 55.6441244], [37.7499238, 55.6440868], [37.7496724, 55.6440523], [37.7493371, 55.6440063]]}, "properties": {"id": "r136163785", "name": "Поречная улица", "highway": "secondary"}}, {"type": "Feature", "geometry": {"type": "LineString", "coordinates": [[37.7403841, 55.6480117], [37.7397746, 55.6479444]]}, "properties": {"id": "r136202726", "name": "Новочеркасский бульвар", "highway": "tertiary"}}, {"type": "Feature", "geometry": {"type": "LineString", "coordinates": [[37.7512763, 55.6483125], [37.7512848, 55.6482903], [37.7513853, 55.6480289], [37.7514541, 55.6479962], [37.7517687, 55.6480334], [37.7518578, 55.6480111], [37.7520072, 55.6476301], [37.7515644, 55.647575], [37.7515914, 55.6475112], [37.7516766, 55.6472798]]}, "properties": {"id": "r136297261", "name": "", "highway": "service"}}, {"type": "Feature", "geometry": {"type": "LineString", "coordinates": [[37.7502728, 55.6481864], [37.7502849, 55.6481568], [37.7503957, 55.6478875], [37.7498773, 55.6478196], [37.7500788, 55.6473299], [37.7504782, 55.6473822], [37.7505038, 55.6473855]]}, "properties": {"id": "r136297263", "name": "", "highway": "service"}}, {"type": "Feature", "geometry": {"type": "LineString", "coordinates": [[37.7493027, 55.6452057], [37.7492465, 55.6453773], [37.7491738, 55.6455773]]}, "properties": {"id": "r136341085", "name": "", "highway": "service"}}, {"type": "Feature", "geometry": {"type": "LineString", "coordinates": [[37.7475457, 55.6465115], [37.7480665, 55.6465527], [37.7483152, 55.6464949], [37.7484542, 55.6463999], [37.7485166, 55.6462446], [37.7486151, 55.6459995], [37.7500153, 55.646169], [37.7498039, 55.6467178], [37.74969, 55.6470084], [37.7496407, 55.6471563], [37.7492883, 55.6480231], [37.749273, 55.6480608]]}, "properties": {"id": "r136344084", "name": "", "highway": "service"}}, {"type": "Feature", "geometry": {"type": "LineString", "coordinates": [[37.7506535, 55.647132], [37.7506474, 55.6470698], [37.7505082, 55.6469185], [37.7504704, 55.646867], [37.7504595, 55.6468019], [37.75042, 55.6466548], [37.7504289, 55.6465589], [37.7505284, 55.6462683], [37.7505645, 55.6461428], [37.7505223, 55.6460908], [37.7503884, 55.6459947], [37.7501743, 55.6458311], [37.7500655, 55.6457368], [37.7493732, 55.6451355], [37.7493619, 55.6450856], [37.7495199, 55.6447132]]}, "properties": {"id": "r136450831", "name": "", "highway": "service"}}, {"type": "Feature", "geometry": {"type": "LineString", "coordinates": [[37.7501743, 55.6458311], [37.7500422, 55.6461119], [37.7500153, 55.646169]]}, "properties": {"id": "r136450832", "name": "", "highway": "service"}}, {"type": "Feature", "geometry": {"type": "LineString", "coordinates": [[37.7493732, 55.6451355], [37.7493027, 55.6452057]]}, "properties": {"id": "r136450833", "name": "", "highway": "service"}}, {"type": "Feature", "geometry": {"type": "LineString", "coordinates": [[37.7505645, 55.6461428], [37.7509732, 55.6461881], [37.7509821, 55.6462389], [37.7509778, 55.6462931], [37.7509914, 55.6463259], [37.7510239, 55.6463489], [37.7511152, 55.646403], [37.751254, 55.6464351], [37.7514085, 55.646434], [37.7515349, 55.6463767], [37.7516354, 55.6463168], [37.7516644, 55.6462296], [37.7516064, 55.6461942], [37.7515726, 55.6461397], [37.7517317, 55.6456831]]}, "properties": {"id": "r136450835", "name": "", "highway": "service"}}, {"type": "Feature", "geometry": {"type": "LineString", "coordinates": [[37.74969, 55.6470084], [37.7506535, 55.647132]]}, "properties": {"id": "r136450837", "name": "", "highway": "service"}}, {"type": "Feature", "geometry": {"type": "LineString", "coordinates": [[37.7517446, 55.6472665], [37.7518378, 55.6470571], [37.751859, 55.6469137], [37.751989, 55.64674], [37.7522167, 55.6461408], [37.7522812, 55.6460404], [37.7523787, 55.6457719], [37.7524165, 55.6457108], [37.7525497, 55.6456678], [37.7527353, 55.6456426], [37.7532417, 55.6457061], [37.7536007, 55.6457508]]}, "properties": {"id": "r136450838", "name": "", "highway": "service"}}, {"type": "Feature", "geometry": {"type": "LineString", "coordinates": [[37.7506617, 55.6454484], [37.7508272, 55.6450073], [37.7508608, 55.6449727], [37.7509206, 55.6449579], [37.7513354, 55.6450084], [37.7516239, 55.6450054]]}, "properties": {"id": "r136453906", "name": "", "highway": "service"}}, {"type": "Feature", "geometry": {"type": "LineString", "coordinates": [[37.7522812, 55.6449612], [37.7525099, 55.6450028], [37.7530188, 55.6450766]]}, "properties": {"id": "r136453907", "name": "", "highway": "service"}}, {"type": "Feature", "geometry": {"type": "LineString", "coordinates": [[37.7520952, 55.6450769], [37.7519896, 55.6452781], [37.7528235, 55.6453904], [37.7527353, 55.6456426]]}, "properties": {"id": "r136453910", "name": "", "highway": "service"}}, {"type": "Feature", "geometry": {"type": "LineString", "coordinates": [[37.751859, 55.6469137], [37.7515898, 55.6467451], [37.7514647, 55.6467563], [37.7511948, 55.6468637], [37.7509384, 55.6466541]]}, "properties": {"id": "r136453911", "name": "", "highway": "service"}}, {"type": "Feature", "geometry": {"type": "LineString", "coordinates": [[37.7519896, 55.6452781], [37.7519053, 55.645268], [37.7517317, 55.6456831], [37.7523787, 55.6457719]]}, "properties": {"id": "r136453912", "name": "", "highway": "service"}}, {"type": "Feature", "geometry": {"type": "LineString", "coordinates": [[37.7499538, 55.6447629], [37.7500557, 55.6445503], [37.7517287, 55.6447777], [37.7516239, 55.6450054], [37.7520952, 55.6450769]]}, "properties": {"id": "r136453913", "name": "", "highway": "service"}}, {"type": "Feature", "geometry": {"type": "LineString", "coordinates": [[37.7500655, 55.6457368], [37.7501577, 55.645703], [37.7506444, 55.6457685], [37.7507404, 55.6455493], [37.7506617, 55.6454484], [37.7503414, 55.6454089], [37.7499547, 55.6450899], [37.7500072, 55.6448735], [37.7499538, 55.6447629], [37.7495199, 55.6447132], [37.7494212, 55.6446968]]}, "properties": {"id": "r136453914", "name": "", "highway": "service"}}, {"type": "Feature", "geometry": {"type": "LineString", "coordinates": [[37.7507418, 55.6482015], [37.7507349, 55.6482202], [37.7507263, 55.6482434]]}, "properties": {"id": "r136667175", "name": "", "highway": "service"}}, {"type": "Feature", "geometry": {"type": "LineString", "coordinates": [[37.7518378, 55.6470571], [37.7522803, 55.6470904]]}, "properties": {"id": "r136667178", "name": "", "highway": "service"}}, {"type": "Feature", "geometry": {"type": "LineString", "coordinates": [[37.7536663, 55.6455855], [37.7539497, 55.6456247], [37.7540183, 55.6456352]]}, "properties": {"id": "r139514017", "name": "", "highway": "service"}}, {"type": "Feature", "geometry": {"type": "LineString", "coordinates": [[37.755, 55.6450833], [37.7549693, 55.6451275], [37.7549055, 55.6451924], [37.7548521, 55.6452468]]}, "properties": {"id": "r139514018", "name": "", "highway": "service"}}, {"type": "Feature", "geometry": {"type": "LineString", "coordinates": [[37.755, 55.6459524], [37.7549344, 55.6459441], [37.7546921, 55.6459133], [37.7541282, 55.6458578], [37.7538705, 55.6458319], [37.7535799, 55.6458032]]}, "properties": {"id": "r139514019", "name": "", "highway": "service"}}, {"type": "Feature", "geometry": {"type": "LineString", "coordinates": [[37.7388387, 55.644], [37.7388359, 55.6440476], [37.7388193, 55.6444015], [37.7397453, 55.6444164], [37.7397319, 55.6446833], [37.7396585, 55.6447214], [37.7395112, 55.6447198], [37.7383806, 55.6447017], [37.7382743, 55.6446445], [37.7383013, 55.6441092], [37.7383068, 55.644]]}, "properties": {"id": "r157403081", "name": "", "highway": "service"}}, {"type": "Feature", "geometry": {"type": "LineString", "coordinates": [[37.7459654, 55.6480894], [37.7462046, 55.6481232], [37.7462582, 55.6481308], [37.74647, 55.6481609]]}, "properties": {"id": "r205608849", "name": "", "highway": "service"}}, {"type": "Feature", "geometry": {"type": "LineString", "coordinates": [[37.7352903, 55.6524232], [37.7353568, 55.6522863], [37.7354174, 55.6521353]]}, "properties": {"id": "r234999242", "name": "", "highway": "service"}}, {"type": "Feature", "geometry": {"type": "LineString", "coordinates": [[37.7420262, 55.6492137], [37.7422309, 55.649237]]}, "properties": {"id": "r235470089", "name": "", "highway": "service"}}, {"type": "Feature", "geometry": {"type": "LineString", "coordinates": [[37.7422309, 55.649237], [37.7423552, 55.6492478], [37.742587, 55.6492694], [37.7429148, 55.6492846]]}, "properties": {"id": "r235470090", "name": "", "highway": "service"}}, {"type": "Feature", "geometry": {"type": "LineString", "coordinates": [[37.7418526, 55.6491804], [37.7420262, 55.6492137]]}, "properties": {"id": "r235470091", "name": "", "highway": "service"}}, {"type": "Feature", "geometry": {"type": "LineString", "coordinates": [[37.7423552, 55.6492478], [37.7422607, 55.6495169], [37.7422117, 55.6495768], [37.7420439, 55.6496639], [37.7413075, 55.6499339]]}, "properties": {"id": "r235470313", "name": "", "highway": "service"}}, {"type": "Feature", "geometry": {"type": "LineString", "coordinates": [[37.7451189, 55.6503971], [37.7443809, 55.6503128]]}, "properties": {"id": "r235641420", "name": "", "highway": "service"}}, {"type": "Feature", "geometry": {"type": "LineString", "coordinates": [[37.7469432, 55.6502894], [37.7473205, 55.6501542]]}, "properties": {"id": "r235641424", "name": "", "highway": "service"}}, {"type": "Feature", "geometry": {"type": "LineString", "coordinates": [[37.7456129, 55.6490556], [37.7458355, 55.6491005], [37.7461547, 55.6491447], [37.7462975, 55.6490638], [37.7463153, 55.6490407], [37.7462515, 55.6489614], [37.7462401, 55.6488857], [37.7462539, 55.6488289], [37.746295, 55.6487838], [37.7463856, 55.6487165], [37.7465534, 55.6486873], [37.746669, 55.6486908], [37.746753, 55.6487109]]}, "properties": {"id": "r235641429", "name": "", "highway": "service"}}, {"type": "Feature", "geometry": {"type": "LineString", "coordinates": [[37.7428251, 55.6542212], [37.7430342, 55.654245], [37.7431123, 55.6542549], [37.7442025, 55.6543731], [37.7444257, 55.6544067], [37.7445391, 55.6545158], [37.7445078, 55.6546378], [37.7445559, 55.6547789], [37.7445084, 55.6549779], [37.74447, 55.6550346], [37.7439599, 55.6550971], [37.7438709, 55.6550736], [37.743776, 55.6545193]]}, "properties": {"id": "r235641430", "name": "", "highway": "service"}}, {"type": "Feature", "geometry": {"type": "LineString", "coordinates": [[37.7452068, 55.6501615], [37.7454255, 55.6501865], [37.7457738, 55.6502175], [37.7457823, 55.6503308], [37.7457159, 55.650368], [37.7456566, 55.6504052], [37.7456101, 55.6504414], [37.7455755, 55.6504952], [37.745585, 55.650565], [37.745616, 55.6506349], [37.7456782, 55.6506662], [37.7457286, 55.6506913], [37.7458441, 55.6507354], [37.7459593, 55.6507464], [37.7460612, 55.6507434]]}, "properties": {"id": "r235641431", "name": "", "highway": "service"}}, {"type": "Feature", "geometry": {"type": "LineString", "coordinates": [[37.7432352, 55.6531043], [37.74348, 55.6531379], [37.7445918, 55.6532772], [37.7445535, 55.6533833], [37.7442025, 55.6543731]]}, "properties": {"id": "r235641432", "name": "", "highway": "service"}}, {"type": "Feature", "geometry": {"type": "LineString", "coordinates": [[37.7362802, 55.6503183], [37.73629, 55.6502278], [37.7363004, 55.6501326]]}, "properties": {"id": "r237509182", "name": "", "highway": "service"}}, {"type": "Feature", "geometry": {"type": "LineString", "coordinates": [[37.7419973, 55.6516179], [37.74169, 55.6515764], [37.7411013, 55.6515094]]}, "properties": {"id": "r237518480", "name": "", "highway": "service"}}, {"type": "Feature", "geometry": {"type": "LineString", "coordinates": [[37.7445511, 55.6529171], [37.7441033, 55.6528587], [37.7441896, 55.6526274], [37.7445531, 55.6517784], [37.7450886, 55.6522172], [37.7451671, 55.6522033], [37.7452495, 55.652211], [37.745703, 55.6522641]]}, "properties": {"id": "r237518483", "name": "", "highway": "service"}}, {"type": "Feature", "geometry": {"type": "LineString", "coordinates": [[37.7465672, 55.6511227], [37.7465182, 55.6512638], [37.7464001, 55.6515585]]}, "properties": {"id": "r237518486", "name": "", "highway": "service"}}, {"type": "Feature", "geometry": {"type": "LineString", "coordinates": [[37.7437891, 55.6516744], [37.744019, 55.6517048], [37.7443367, 55.6517438], [37.7445531, 55.6517784], [37.7447796, 55.6516826], [37.7450308, 55.6517209], [37.7452287, 55.651902], [37.7451528, 55.6520958]]}, "properties": {"id": "r237518490", "name": "", "highway": "service"}}, {"type": "Feature", "geometry": {"type": "LineString", "coordinates": [[37.7377678, 55.6481735], [37.7376464, 55.6481464], [37.7376451, 55.6479854]]}, "properties": {"id": "r240458850", "name": "", "highway": "service"}}, {"type": "Feature", "geometry": {"type": "LineString", "coordinates": [[37.7436116, 55.656], [37.7437506, 55.6559103], [37.7437865, 55.655873], [37.7436144, 55.6555632]]}, "properties": {"id": "r241104769", "name": "", "highway": "service"}}, {"type": "Feature", "geometry": {"type": "LineString", "coordinates": [[37.7382958, 55.6549008], [37.7384601, 55.6547759], [37.7385466, 55.6546894], [37.7384318, 55.6546427], [37.7382715, 55.6545809], [37.737309, 55.6541969], [37.7372197, 55.6541613]]}, "properties": {"id": "r241106590", "name": "", "highway": "service"}}, {"type": "Feature", "geometry": {"type": "LineString", "coordinates": [[37.7400386, 55.6551918], [37.7399512, 55.655208], [37.7385466, 55.6546894], [37.7384939, 55.6545253], [37.7386202, 55.654411], [37.7387308, 55.6543729], [37.7389743, 55.6543636]]}, "properties": {"id": "r241106591", "name": "", "highway": "service"}}, {"type": "Feature", "geometry": {"type": "LineString", "coordinates": [[37.7517619, 55.6503724], [37.7521019, 55.650414], [37.7523874, 55.6504488], [37.7531731, 55.6505414], [37.7536866, 55.6506019]]}, "properties": {"id": "r259709383", "name": "", "highway": "service"}}, {"type": "Feature", "geometry": {"type": "LineString", "coordinates": [[37.7457738, 55.6502175], [37.7457689, 55.650132], [37.7457172, 55.6500332], [37.7457015, 55.6499849], [37.7457107, 55.649914], [37.7457259, 55.6498906], [37.745772, 55.6497894], [37.7458885, 55.6498032]]}, "properties": {"id": "r259875433", "name": "", "highway": "service"}}, {"type": "Feature", "geometry": {"type": "LineString", "coordinates": [[37.7483841, 55.6513407], [37.7483191, 55.6515049], [37.7482762, 55.6516083], [37.7477251, 55.6515419]]}, "properties": {"id": "r259886361", "name": "", "highway": "service"}}, {"type": "Feature", "geometry": {"type": "LineString", "coordinates": [[37.75146, 55.6511089], [37.7517824, 55.6511478], [37.7519327, 55.6511676]]}, "properties": {"id": "r259887408", "name": "", "highway": "service"}}, {"type": "Feature", "geometry": {"type": "LineString", "coordinates": [[37.7499671, 55.6515835], [37.7499005, 55.6517404], [37.7496488, 55.6523072]]}, "properties": {"id": "r259887409", "name": "", "highway": "service"}}, {"type": "Feature", "geometry": {"type": "LineString", "coordinates": [[37.7474291, 55.6521047], [37.7474957, 55.6521087], [37.7478721, 55.6521607], [37.7480687, 55.652091], [37.7481579, 55.65186]]}, "properties": {"id": "r259887411", "name": "", "highway": "service"}}, {"type": "Feature", "geometry": {"type": "LineString", "coordinates": [[37.752949, 55.6519551], [37.7521943, 55.6516691], [37.7521478, 55.6515389], [37.7522768, 55.6512118], [37.7523385, 55.6510552], [37.7529142, 55.6511183]]}, "properties": {"id": "r259887412", "name": "", "highway": "service"}}, {"type": "Feature", "geometry": {"type": "LineString", "coordinates": [[37.752394, 55.6524043], [37.7525863, 55.6522405], [37.7526852, 55.6521735], [37.752949, 55.6519551], [37.7530032, 55.6519294], [37.7530907, 55.6519275], [37.7534076, 55.6520153], [37.7535491, 55.6519046], [37.7534408, 55.6518119], [37.7530853, 55.6514877], [37.7530366, 55.6513522], [37.7531548, 55.6511092], [37.7530548, 55.6510966], [37.7529142, 55.6511183]]}, "properties": {"id": "r259887414", "name": "", "highway": "service"}}, {"type": "Feature", "geometry": {"type": "LineString", "coordinates": [[37.7407265, 55.645779], [37.7406384, 55.6457752], [37.7406384, 55.6456314], [37.7407278, 55.6456307]]}, "properties": {"id": "r259888299", "name": "", "highway": "service"}}, {"type": "Feature", "geometry": {"type": "LineString", "coordinates": [[37.740583, 55.648803], [37.7399884, 55.6487331], [37.7398687, 55.6486929], [37.7397864, 55.6486171], [37.7396543, 55.6485478], [37.7392244, 55.6484951], [37.7391351, 55.6485253], [37.7390959, 55.6486202], [37.7390763, 55.6487929]]}, "properties": {"id": "r261995195", "name": "", "highway": "service"}}, {"type": "Feature", "geometry": {"type": "LineString", "coordinates": [[37.7373966, 55.6545471], [37.7372718, 55.6546295], [37.7371229, 55.6547878], [37.7369716, 55.6548806]]}, "properties": {"id": "r262552013", "name": "", "highway": "service"}}, {"type": "Feature", "geometry": {"type": "LineString", "coordinates": [[37.7402641, 55.6506203], [37.7405713, 55.6505315]]}, "properties": {"id": "r262556920", "name": "", "highway": "service"}}, {"type": "Feature", "geometry": {"type": "LineString", "coordinates": [[37.7423858, 55.6553808], [37.7426062, 55.655414], [37.7436144, 55.6555632]]}, "properties": {"id": "r262556922", "name": "", "highway": "service"}}, {"type": "Feature", "geometry": {"type": "LineString", "coordinates": [[37.7425951, 55.654777], [37.7428383, 55.6548063], [37.7431254, 55.6547842], [37.7432744, 55.6553004]]}, "properties": {"id": "r262556928", "name": "", "highway": "service"}}, {"type": "Feature", "geometry": {"type": "LineString", "coordinates": [[37.7390725, 55.64991], [37.739092, 55.6493852]]}, "properties": {"id": "r264113476", "name": "", "highway": "service"}}, {"type": "Feature", "geometry": {"type": "LineString", "coordinates": [[37.7360107, 55.6555057], [37.7362764, 55.655598], [37.7363542, 55.655595], [37.7364051, 55.6555829], [37.7364802, 55.6555254], [37.7365151, 55.6554951], [37.7365335, 55.6554592]]}, "properties": {"id": "r264269133", "name": "", "highway": "service"}}, {"type": "Feature", "geometry": {"type": "LineString", "coordinates": [[37.7359058, 55.6555988], [37.7361181, 55.6556752], [37.7361879, 55.6556903], [37.7362308, 55.6556873], [37.7362818, 55.6556737], [37.7363086, 55.6556465]]}, "properties": {"id": "r264269362", "name": "", "highway": "service"}}, {"type": "Feature", "geometry": {"type": "LineString", "coordinates": [[37.7358023, 55.6556855], [37.7358875, 55.6557176], [37.7359143, 55.6557388], [37.7359089, 55.6557705], [37.7358794, 55.6557932], [37.7358446, 55.6557993], [37.735799, 55.6557948], [37.7353795, 55.6556459]]}, "properties": {"id": "r264269365", "name": "", "highway": "service"}}, {"type": "Feature", "geometry": {"type": "LineString", "coordinates": [[37.7359588, 55.6555502], [37.7362201, 55.655648], [37.7362683, 55.655651], [37.7363086, 55.6556465], [37.7363408, 55.6556298], [37.7364051, 55.6555829]]}, "properties": {"id": "r264269367", "name": "", "highway": "service"}}, {"type": "Feature", "geometry": {"type": "LineString", "coordinates": [[37.7358505, 55.6556452], [37.7360135, 55.6557025], [37.7360699, 55.6557251], [37.7361289, 55.6557312], [37.7361852, 55.6557267], [37.7362335, 55.655707], [37.7362818, 55.6556737]]}, "properties": {"id": "r264269369", "name": "", "highway": "service"}}, {"type": "Feature", "geometry": {"type": "LineString", "coordinates": [[37.7351785, 55.6555746], [37.735, 55.6555113]]}, "properties": {"id": "r264269376", "name": "", "highway": "service"}}, {"type": "Feature", "geometry": {"type": "LineString", "coordinates": [[37.7353795, 55.6556459], [37.7351785, 55.6555746]]}, "properties": {"id": "r264269377", "name": "", "highway": "service"}}, {"type": "Feature", "geometry": {"type": "LineString", "coordinates": [[37.735, 55.655156], [37.7360107, 55.6555057]]}, "properties": {"id": "r264269798", "name": "", "highway": "service"}}, {"type": "Feature", "geometry": {"type": "LineString", "coordinates": [[37.735, 55.6552096], [37.7359588, 55.6555502]]}, "properties": {"id": "r264269902", "name": "", "highway": "service"}}, {"type": "Feature", "geometry": {"type": "LineString", "coordinates": [[37.735, 55.6552857], [37.7359058, 55.6555988]]}, "properties": {"id": "r264269903", "name": "", "highway": "service"}}, {"type": "Feature", "geometry": {"type": "LineString", "coordinates": [[37.735, 55.6553437], [37.7358505, 55.6556452]]}, "properties": {"id": "r264269904", "name": "", "highway": "service"}}, {"type": "Feature", "geometry": {"type": "LineString", "coordinates": [[37.735, 55.6553953], [37.7358023, 55.6556855]]}, "properties": {"id": "r264269905", "name": "", "highway": "service"}}, {"type": "Feature", "geometry": {"type": "LineString", "coordinates": [[37.7399746, 55.6516319], [37.7394401, 55.6515659]]}, "properties": {"id": "r267625703", "name": "", "highway": "service"}}, {"type": "Feature", "geometry": {"type": "LineString", "coordinates": [[37.7400067, 55.6515257], [37.74033, 55.6514607], [37.7406385, 55.6515142], [37.7407458, 55.6516247]]}, "properties": {"id": "r267625708", "name": "", "highway": "service"}}, {"type": "Feature", "geometry": {"type": "LineString", "coordinates": [[37.7401559, 55.6510329], [37.7409912, 55.6507944]]}, "properties": {"id": "r267625709", "name": "", "highway": "service"}}, {"type": "Feature", "geometry": {"type": "LineString", "coordinates": [[37.7404078, 55.6525473], [37.7403761, 55.6524684], [37.7404656, 55.6522326], [37.7403975, 55.6521371], [37.7400145, 55.6520066], [37.7398743, 55.651882]]}, "properties": {"id": "r267625718", "name": "", "highway": "service"}}, {"type": "Feature", "geometry": {"type": "LineString", "coordinates": [[37.7438482, 55.656], [37.7437506, 55.6559103]]}, "properties": {"id": "r282048447", "name": "", "highway": "service"}}, {"type": "Feature", "geometry": {"type": "LineString", "coordinates": [[37.7457092, 55.6553274], [37.746339, 55.6554078], [37.7464887, 55.6553907]]}, "properties": {"id": "r282048448", "name": "", "highway": "service"}}, {"type": "Feature", "geometry": {"type": "LineString", "coordinates": [[37.7437865, 55.655873], [37.7442702, 55.6557776], [37.7446258, 55.6556384], [37.745111, 55.655446], [37.7449212, 55.6553357], [37.7450236, 55.6549422]]}, "properties": {"id": "r282048450", "name": "", "highway": "service"}}, {"type": "Feature", "geometry": {"type": "LineString", "coordinates": [[37.745111, 55.655446], [37.7451642, 55.6554746], [37.7457092, 55.6553274], [37.7457681, 55.6552053], [37.7457183, 55.6551218], [37.745867, 55.6548365], [37.7459484, 55.6548196], [37.7463463, 55.6548117]]}, "properties": {"id": "r282048451", "name": "", "highway": "service"}}, {"type": "Feature", "geometry": {"type": "LineString", "coordinates": [[37.7465982, 55.6530357], [37.7464444, 55.653401], [37.7464483, 55.6534662], [37.7464895, 55.6535212], [37.7468825, 55.6538972], [37.7467446, 55.6539364], [37.7463333, 55.6540367], [37.7463007, 55.6541018], [37.7467543, 55.6547128], [37.7465949, 55.6547802], [37.7465025, 55.6548264], [37.7463463, 55.6548117]]}, "properties": {"id": "r282048453", "name": "", "highway": "service"}}, {"type": "Feature", "geometry": {"type": "LineString", "coordinates": [[37.7471392, 55.6552171], [37.747571, 55.6558158], [37.7481244, 55.6557131], [37.7483143, 55.6559955], [37.7483178, 55.656]]}, "properties": {"id": "r282219852", "name": "", "highway": "service"}}, {"type": "Feature", "geometry": {"type": "LineString", "coordinates": [[37.7515752, 55.6550939], [37.7515053, 55.6550254], [37.751439, 55.6549689], [37.7510406, 55.6546193], [37.7506259, 55.6542212], [37.7505272, 55.6541034], [37.7502425, 55.6536641], [37.7502149, 55.6535723], [37.7502264, 55.6531537], [37.7502439, 55.6530361], [37.7504808, 55.6526045]]}, "properties": {"id": "r282219854", "name": "", "highway": "service"}}, {"type": "Feature", "geometry": {"type": "LineString", "coordinates": [[37.7518457, 55.656], [37.7517761, 55.6557779]]}, "properties": {"id": "r282219856", "name": "", "highway": "service"}}, {"type": "Feature", "geometry": {"type": "LineString", "coordinates": [[37.7510881, 55.6556844], [37.7512653, 55.6558216], [37.7517761, 55.6557779]]}, "properties": {"id": "r282219858", "name": "", "highway": "service"}}, {"type": "Feature", "geometry": {"type": "LineString", "coordinates": [[37.7507539, 55.655572], [37.7510881, 55.6556844], [37.751005, 55.6559407], [37.7509283, 55.656]]}, "properties": {"id": "r282219863", "name": "", "highway": "service"}}, {"type": "Feature", "geometry": {"type": "LineString", "coordinates": [[37.7495895, 55.656], [37.7494978, 55.6559663], [37.7493399, 55.655898]]}, "properties": {"id": "r282219866", "name": "", "highway": "service"}}, {"type": "Feature", "geometry": {"type": "LineString", "coordinates": [[37.7512653, 55.6558216], [37.7512989, 55.656]]}, "properties": {"id": "r282219878", "name": "", "highway": "service"}}, {"type": "Feature", "geometry": {"type": "LineString", "coordinates": [[37.7517761, 55.6557779], [37.7519436, 55.6557478], [37.7519994, 55.6556901], [37.7519942, 55.6556355], [37.7519473, 55.6555689], [37.7522118, 55.6553439]]}, "properties": {"id": "r282219881", "name": "", "highway": "service"}}, {"type": "Feature", "geometry": {"type": "LineString", "coordinates": [[37.7450886, 55.6522172], [37.7447537, 55.6523437], [37.7447451, 55.6524145], [37.7448537, 55.6525146], [37.7448473, 55.6526256], [37.7449557, 55.652765], [37.7449455, 55.6528241], [37.7448392, 55.6531019]]}, "properties": {"id": "r282219888", "name": "", "highway": "service"}}, {"type": "Feature", "geometry": {"type": "LineString", "coordinates": [[37.7515053, 55.6550254], [37.7513554, 55.6550849], [37.7507539, 55.655572], [37.7506707, 55.6556265], [37.7505935, 55.6556307], [37.7505058, 55.6556172], [37.7498431, 55.6553739], [37.749511, 55.6552895], [37.7493419, 55.6552531], [37.7487657, 55.6550714], [37.7478122, 55.6552798]]}, "properties": {"id": "r282219892", "name": "", "highway": "service"}}, {"type": "Feature", "geometry": {"type": "LineString", "coordinates": [[37.7467446, 55.6539364], [37.7470519, 55.6543192], [37.747962, 55.6540908], [37.7482075, 55.6537408], [37.7482516, 55.6536746], [37.7480678, 55.6535576], [37.7474241, 55.6530973], [37.7475728, 55.652833], [37.7476449, 55.6527138], [37.7478721, 55.6521607]]}, "properties": {"id": "r282238748", "name": "", "highway": "service"}}, {"type": "Feature", "geometry": {"type": "LineString", "coordinates": [[37.7494978, 55.6559663], [37.7497786, 55.6557109]]}, "properties": {"id": "r282238754", "name": "", "highway": "service"}}, {"type": "Feature", "geometry": {"type": "LineString", "coordinates": [[37.7491984, 55.6526329], [37.7493386, 55.6522012]]}, "properties": {"id": "r282238757", "name": "", "highway": "service"}}, {"type": "Feature", "geometry": {"type": "LineString", "coordinates": [[37.74348, 55.6553518], [37.7436144, 55.6555632]]}, "properties": {"id": "r282238764", "name": "", "highway": "service"}}, {"type": "Feature", "geometry": {"type": "LineString", "coordinates": [[37.7451642, 55.6554746], [37.7454791, 55.6556912]]}, "properties": {"id": "r282238769", "name": "", "highway": "service"}}, {"type": "Feature", "geometry": {"type": "LineString", "coordinates": [[37.7444257, 55.6544067], [37.7444955, 55.6543579], [37.7447095, 55.6537994], [37.7447448, 55.6537679], [37.7448968, 55.6537232]]}, "properties": {"id": "r282238770", "name": "", "highway": "service"}}, {"type": "Feature", "geometry": {"type": "LineString", "coordinates": [[37.74348, 55.6553518], [37.7433065, 55.6547687], [37.7432248, 55.6546864], [37.7431123, 55.6542549]]}, "properties": {"id": "r282238778", "name": "", "highway": "service"}}, {"type": "Feature", "geometry": {"type": "LineString", "coordinates": [[37.7485604, 55.6529098], [37.7486843, 55.6525748], [37.7491984, 55.6526329], [37.7498767, 55.6526944]]}, "properties": {"id": "r282238779", "name": "", "highway": "service"}}, {"type": "Feature", "geometry": {"type": "LineString", "coordinates": [[37.7468825, 55.6538972], [37.7471788, 55.6539204], [37.7473947, 55.6538564], [37.7474215, 55.653811], [37.7469762, 55.6533934], [37.7471157, 55.6530635], [37.7474241, 55.6530973]]}, "properties": {"id": "r282238782", "name": "", "highway": "service"}}, {"type": "Feature", "geometry": {"type": "LineString", "coordinates": [[37.7482516, 55.6536746], [37.7485835, 55.6536876], [37.7487546, 55.6537492], [37.7486019, 55.654042], [37.7483684, 55.6542948], [37.748254, 55.6543716], [37.7467543, 55.6547128]]}, "properties": {"id": "r282238791", "name": "", "highway": "service"}}, {"type": "Feature", "geometry": {"type": "LineString", "coordinates": [[37.7523852, 55.655419], [37.752201, 55.6555654], [37.7521225, 55.6556855], [37.7519205, 55.6558519], [37.7522787, 55.656]]}, "properties": {"id": "r282238794", "name": "", "highway": "service"}}, {"type": "Feature", "geometry": {"type": "LineString", "coordinates": [[37.7379732, 55.6534157], [37.7382584, 55.6533462], [37.7387176, 55.6533804], [37.7388142, 55.6534871], [37.7389438, 55.6536243], [37.7396345, 55.6537131], [37.7401637, 55.6535149], [37.7401824, 55.6534519], [37.7401869, 55.6534164], [37.7401982, 55.653385], [37.7402552, 55.6532279], [37.7402646, 55.6531753], [37.7402588, 55.6531401], [37.7402485, 55.6530773], [37.7401854, 55.6530236], [37.7399455, 55.6528198], [37.7395416, 55.6527423], [37.7390932, 55.6526967], [37.738921, 55.6526315]]}, "properties": {"id": "r284803034", "name": "", "highway": "service"}}, {"type": "Feature", "geometry": {"type": "LineString", "coordinates": [[37.7481244, 55.6557131], [37.7478122, 55.6552798]]}, "properties": {"id": "r284803038", "name": "", "highway": "service"}}, {"type": "Feature", "geometry": {"type": "LineString", "coordinates": [[37.7485842, 55.6547761], [37.7485345, 55.6547153], [37.748254, 55.6543716]]}, "properties": {"id": "r284803041", "name": "", "highway": "service"}}, {"type": "Feature", "geometry": {"type": "LineString", "coordinates": [[37.7464887, 55.6553907], [37.7466285, 55.6551772], [37.7465025, 55.6548264]]}, "properties": {"id": "r284803054", "name": "", "highway": "service"}}, {"type": "Feature", "geometry": {"type": "LineString", "coordinates": [[37.7408256, 55.6534431], [37.740912, 55.653087], [37.7405768, 55.6527657]]}, "properties": {"id": "r284803058", "name": "", "highway": "service"}}, {"type": "Feature", "geometry": {"type": "LineString", "coordinates": [[37.7408639, 55.6544582], [37.7406088, 55.6544138], [37.7403552, 55.6543838], [37.7402026, 55.6549931], [37.7400386, 55.6551918]]}, "properties": {"id": "r284803068", "name": "", "highway": "service"}}, {"type": "Feature", "geometry": {"type": "LineString", "coordinates": [[37.7423136, 55.6482613], [37.7423603, 55.6481618], [37.7423992, 55.6480786], [37.7413205, 55.6479376], [37.7412731, 55.6480398], [37.7412352, 55.6481237]]}, "properties": {"id": "r284803071", "name": "", "highway": "service"}}, {"type": "Feature", "geometry": {"type": "LineString", "coordinates": [[37.755, 55.6520443], [37.7548468, 55.6521034], [37.7542231, 55.652021], [37.754098, 55.6520854], [37.7538538, 55.65229], [37.7536198, 55.6524889], [37.7526852, 55.6521735], [37.7518257, 55.6518659]]}, "properties": {"id": "r284803073", "name": "", "highway": "service"}}, {"type": "Feature", "geometry": {"type": "LineString", "coordinates": [[37.7398771, 55.6475128], [37.7397363, 55.6475004], [37.7392745, 55.6474491], [37.7386401, 55.6473785]]}, "properties": {"id": "r300418866", "name": "", "highway": "service"}}, {"type": "Feature", "geometry": {"type": "LineString", "coordinates": [[37.7423552, 55.6492478], [37.7424289, 55.6490626], [37.7424609, 55.64898], [37.7424583, 55.6488988], [37.742031, 55.648531]]}, "properties": {"id": "r306502756", "name": "", "highway": "service"}}, {"type": "Feature", "geometry": {"type": "LineString", "coordinates": [[37.7411261, 55.650459], [37.7412196, 55.650411], [37.7412997, 55.6501505], [37.7413664, 55.6499424]]}, "properties": {"id": "r307997823", "name": "", "highway": "service"}}, {"type": "Feature", "geometry": {"type": "LineString", "coordinates": [[37.7412997, 55.6501505], [37.7413776, 55.6501612], [37.7419225, 55.6502409]]}, "properties": {"id": "r307997824", "name": "", "highway": "service"}}, {"type": "Feature", "geometry": {"type": "LineString", "coordinates": [[37.7358268, 55.6477133], [37.735, 55.6476641]]}, "properties": {"id": "r311772333", "name": "", "highway": "service"}}, {"type": "Feature", "geometry": {"type": "LineString", "coordinates": [[37.7351599, 55.6536675], [37.7350935, 55.6537858], [37.735, 55.6538478]]}, "properties": {"id": "r312588478", "name": "", "highway": "service"}}, {"type": "Feature", "geometry": {"type": "LineString", "coordinates": [[37.7378114, 55.6490605], [37.7374944, 55.6490562]]}, "properties": {"id": "r313139394", "name": "", "highway": "service"}}, {"type": "Feature", "geometry": {"type": "LineString", "coordinates": [[37.7376734, 55.6475464], [37.7392381, 55.6477035], [37.7395543, 55.6477413]]}, "properties": {"id": "r319921964", "name": "", "highway": "service"}}, {"type": "Feature", "geometry": {"type": "LineString", "coordinates": [[37.7392381, 55.6477035], [37.7392852, 55.6475811], [37.7396533, 55.6476196]]}, "properties": {"id": "r319921965", "name": "", "highway": "service"}}, {"type": "Feature", "geometry": {"type": "LineString", "coordinates": [[37.7411668, 55.6536739], [37.7412385, 55.6534883], [37.7413279, 55.6532568], [37.7413568, 55.6531819], [37.7415421, 55.6527021], [37.7417533, 55.652181]]}, "properties": {"id": "r341151350", "name": "Люблинская улица (дублёр)", "highway": "tertiary"}}, {"type": "Feature", "geometry": {"type": "LineString", "coordinates": [[37.741074, 55.6539141], [37.7411668, 55.6536739]]}, "properties": {"id": "r341151351", "name": "Люблинская улица (дублёр)", "highway": "tertiary"}}, {"type": "Feature", "geometry": {"type": "LineString", "coordinates": [[37.7404943, 55.6489], [37.7405569, 55.6488606], [37.740583, 55.648803], [37.740703, 55.648521], [37.7408204, 55.6482513], [37.7408601, 55.6481556], [37.7408821, 55.6480783]]}, "properties": {"id": "r342944112", "name": "", "highway": "service"}}, {"type": "Feature", "geometry": {"type": "LineString", "coordinates": [[37.7403237, 55.6494098], [37.7403311, 55.6493533], [37.7403819, 55.6490035], [37.7403871, 55.6489674], [37.7404943, 55.6489]]}, "properties": {"id": "r342944113", "name": "", "highway": "service"}}, {"type": "Feature", "geometry": {"type": "LineString", "coordinates": [[37.7388618, 55.6463727], [37.7388603, 55.6464639]]}, "properties": {"id": "r343615023", "name": "", "highway": "service"}}, {"type": "Feature", "geometry": {"type": "LineString", "coordinates": [[37.7388578, 55.6465648], [37.7388573, 55.6466423]]}, "properties": {"id": "r343615024", "name": "", "highway": "service"}}, {"type": "Feature", "geometry": {"type": "LineString", "coordinates": [[37.7388578, 55.6465648], [37.7388603, 55.6464639]]}, "properties": {"id": "r343615025", "name": "", "highway": "service"}}, {"type": "Feature", "geometry": {"type": "LineString", "coordinates": [[37.7535491, 55.6519046], [37.7537892, 55.6519761]]}, "properties": {"id": "r349586357", "name": "", "highway": "service"}}, {"type": "Feature", "geometry": {"type": "LineString", "coordinates": [[37.755, 55.6527317], [37.7549534, 55.6527137], [37.7538538, 55.65229]]}, "properties": {"id": "r349586365", "name": "", "highway": "service"}}, {"type": "Feature", "geometry": {"type": "LineString", "coordinates": [[37.75337, 55.655592], [37.7533982, 55.6555666], [37.7536799, 55.6553387], [37.7543943, 55.6547392], [37.7547676, 55.65443], [37.755, 55.6542317]]}, "properties": {"id": "r424129486", "name": "Мячковский бульвар", "highway": "tertiary"}}, {"type": "Feature", "geometry": {"type": "LineString", "coordinates": [[37.7419375, 55.6482136], [37.7412352, 55.6481237], [37.7409262, 55.6480842]]}, "properties": {"id": "r430431042", "name": "Новочеркасский бульвар", "highway": "tertiary"}}, {"type": "Feature", "geometry": {"type": "LineString", "coordinates": [[37.7371229, 55.6547878], [37.7371868, 55.6548172]]}, "properties": {"id": "r454699474", "name": "", "highway": "service"}}, {"type": "Feature", "geometry": {"type": "LineString", "coordinates": [[37.735, 55.6490365], [37.7370354, 55.6490973]]}, "properties": {"id": "r456079743", "name": "", "highway": "service"}}, {"type": "Feature", "geometry": {"type": "LineString", "coordinates": [[37.7371868, 55.6548172], [37.7382419, 55.6552223]]}, "properties": {"id": "r456080063", "name": "", "highway": "service"}}, {"type": "Feature", "geometry": {"type": "LineString", "coordinates": [[37.7463153, 55.6490407], [37.7464153, 55.649075], [37.7465718, 55.6490984], [37.7466771, 55.6491039], [37.7468055, 55.6490891], [37.7468958, 55.6490394], [37.7469905, 55.6489788], [37.7471375, 55.6489997], [37.7473573, 55.6490337]]}, "properties": {"id": "r479480894", "name": "", "highway": "service"}}, {"type": "Feature", "geometry": {"type": "LineString", "coordinates": [[37.7535183, 55.6484413], [37.753459, 55.6485901], [37.7534363, 55.6486523], [37.7532083, 55.6491903], [37.7528127, 55.649132]]}, "properties": {"id": "r479485830", "name": "", "highway": "service"}}, {"type": "Feature", "geometry": {"type": "LineString", "coordinates": [[37.7520952, 55.6450769], [37.7521691, 55.645026], [37.7522812, 55.6449612], [37.7521952, 55.6448803], [37.7523035, 55.6446135], [37.7523867, 55.6444248]]}, "properties": {"id": "r486087697", "name": "", "highway": "service"}}, {"type": "Feature", "geometry": {"type": "LineString", "coordinates": [[37.7517317, 55.6456831], [37.7513333, 55.6456245], [37.7512637, 55.6456278], [37.751194, 55.6456443], [37.7511313, 55.6457267], [37.7509732, 55.6461881]]}, "properties": {"id": "r486088898", "name": "", "highway": "service"}}, {"type": "Feature", "geometry": {"type": "LineString", "coordinates": [[37.755, 55.6466407], [37.7549676, 55.6466722], [37.7549481, 55.6467347], [37.7549025, 55.6467623], [37.7548439, 55.6467715], [37.7540688, 55.6466741], [37.7541908, 55.6463279], [37.7542433, 55.646179], [37.7547562, 55.6462382], [37.7546634, 55.6464503]]}, "properties": {"id": "r486389988", "name": "", "highway": "service"}}, {"type": "Feature", "geometry": {"type": "LineString", "coordinates": [[37.7541637, 55.6485068], [37.7542452, 55.6483266], [37.754675, 55.6483772]]}, "properties": {"id": "r486393020", "name": "", "highway": "service"}}, {"type": "Feature", "geometry": {"type": "LineString", "coordinates": [[37.7494212, 55.6446968], [37.7495678, 55.6443023], [37.7496724, 55.6440523]]}, "properties": {"id": "r486395860", "name": "", "highway": "service"}}, {"type": "Feature", "geometry": {"type": "LineString", "coordinates": [[37.7494212, 55.6446968], [37.7483566, 55.6445438]]}, "properties": {"id": "r486395861", "name": "", "highway": "service"}}, {"type": "Feature", "geometry": {"type": "LineString", "coordinates": [[37.7488871, 55.644], [37.7487987, 55.6442002], [37.7487688, 55.6442535]]}, "properties": {"id": "r486525319", "name": "", "highway": "service"}}, {"type": "Feature", "geometry": {"type": "LineString", "coordinates": [[37.7482172, 55.6441796], [37.7486739, 55.6442404], [37.7487688, 55.6442535], [37.7493154, 55.644329]]}, "properties": {"id": "r486525320", "name": "", "highway": "service"}}, {"type": "Feature", "geometry": {"type": "LineString", "coordinates": [[37.7470494, 55.6452654], [37.7473505, 55.6453076], [37.7479944, 55.6453766], [37.7483566, 55.6445438]]}, "properties": {"id": "r486730545", "name": "", "highway": "service"}}, {"type": "Feature", "geometry": {"type": "LineString", "coordinates": [[37.7485166, 55.6462446], [37.7480999, 55.6461889], [37.7480136, 55.6462146], [37.7476358, 55.6461668], [37.7478322, 55.6456063], [37.7479108, 55.6455576], [37.7479944, 55.6453766]]}, "properties": {"id": "r486734035", "name": "", "highway": "service"}}, {"type": "Feature", "geometry": {"type": "LineString", "coordinates": [[37.755, 55.6471578], [37.7549514, 55.6471105]]}, "properties": {"id": "r492954515", "name": "", "highway": "service"}}, {"type": "Feature", "geometry": {"type": "LineString", "coordinates": [[37.755, 55.6479467], [37.75499, 55.6479453], [37.7545076, 55.6478841], [37.7545777, 55.6477128], [37.7537067, 55.6476048], [37.7536417, 55.6477575], [37.7534873, 55.64812], [37.7538748, 55.6481727], [37.7537678, 55.6484666]]}, "properties": {"id": "r492955098", "name": "", "highway": "service"}}, {"type": "Feature", "geometry": {"type": "LineString", "coordinates": [[37.755, 55.6475899], [37.7548929, 55.647477], [37.7547715, 55.6474388], [37.7535316, 55.6472991]]}, "properties": {"id": "r492955486", "name": "", "highway": "service"}}, {"type": "Feature", "geometry": {"type": "LineString", "coordinates": [[37.7533997, 55.6462577], [37.7537001, 55.6462792], [37.7538149, 55.6462942]]}, "properties": {"id": "r492957091", "name": "", "highway": "service"}}, {"type": "Feature", "geometry": {"type": "LineString", "coordinates": [[37.7539707, 55.646309], [37.7541908, 55.6463279]]}, "properties": {"id": "r492957094", "name": "", "highway": "service"}}, {"type": "Feature", "geometry": {"type": "LineString", "coordinates": [[37.7538149, 55.6462942], [37.7539707, 55.646309]]}, "properties": {"id": "r492957098", "name": "", "highway": "service"}}, {"type": "Feature", "geometry": {"type": "LineString", "coordinates": [[37.75316, 55.6468619], [37.7528009, 55.6468026], [37.7527238, 55.6467879], [37.7529333, 55.6462354], [37.7529982, 55.6462346], [37.7533997, 55.6462577]]}, "properties": {"id": "r492957863", "name": "", "highway": "service"}}, {"type": "Feature", "geometry": {"type": "LineString", "coordinates": [[37.7528371, 55.6476759], [37.7531617, 55.6477095], [37.7532925, 55.6477231]]}, "properties": {"id": "r492959482", "name": "", "highway": "service"}}, {"type": "Feature", "geometry": {"type": "LineString", "coordinates": [[37.7534594, 55.6477404], [37.7536417, 55.6477575]]}, "properties": {"id": "r492959483", "name": "", "highway": "service"}}, {"type": "Feature", "geometry": {"type": "LineString", "coordinates": [[37.7532925, 55.6477231], [37.7534594, 55.6477404]]}, "properties": {"id": "r492959485", "name": "", "highway": "service"}}, {"type": "Feature", "geometry": {"type": "LineString", "coordinates": [[37.752019, 55.649729], [37.7523553, 55.6497643], [37.7524778, 55.6497767]]}, "properties": {"id": "r492960802", "name": "", "highway": "service"}}, {"type": "Feature", "geometry": {"type": "LineString", "coordinates": [[37.7526428, 55.6497975], [37.7527956, 55.6498124]]}, "properties": {"id": "r492960803", "name": "", "highway": "service"}}, {"type": "Feature", "geometry": {"type": "LineString", "coordinates": [[37.7524778, 55.6497767], [37.7526428, 55.6497975]]}, "properties": {"id": "r492960804", "name": "", "highway": "service"}}, {"type": "Feature", "geometry": {"type": "LineString", "coordinates": [[37.753685, 55.6500131], [37.7535799, 55.6502542], [37.7535262, 55.6502805], [37.7532843, 55.6502494], [37.7527697, 55.650183], [37.7526973, 55.6501132], [37.7527956, 55.6498124], [37.7528397, 55.6497008], [37.7529238, 55.6496903], [37.7532778, 55.6497353], [37.7534001, 55.6497509], [37.7533708, 55.6498226], [37.7533301, 55.6499222]]}, "properties": {"id": "r492961078", "name": "", "highway": "service"}}, {"type": "Feature", "geometry": {"type": "LineString", "coordinates": [[37.7532843, 55.6502494], [37.7532501, 55.6503396]]}, "properties": {"id": "r492961079", "name": "", "highway": "service"}}, {"type": "Feature", "geometry": {"type": "LineString", "coordinates": [[37.7532501, 55.6503396], [37.7532173, 55.6504312]]}, "properties": {"id": "r492961080", "name": "", "highway": "service"}}, {"type": "Feature", "geometry": {"type": "LineString", "coordinates": [[37.7532173, 55.6504312], [37.7531731, 55.6505414]]}, "properties": {"id": "r492961081", "name": "", "highway": "service"}}, {"type": "Feature", "geometry": {"type": "LineString", "coordinates": [[37.7536198, 55.6524889], [37.7535689, 55.6525357], [37.7534905, 55.6525903], [37.7532889, 55.6527364]]}, "properties": {"id": "r492967129", "name": "", "highway": "service"}}, {"type": "Feature", "geometry": {"type": "LineString", "coordinates": [[37.7521019, 55.6511899], [37.7522768, 55.6512118]]}, "properties": {"id": "r492967554", "name": "", "highway": "service"}}, {"type": "Feature", "geometry": {"type": "LineString", "coordinates": [[37.7519327, 55.6511676], [37.7521019, 55.6511899]]}, "properties": {"id": "r492967555", "name": "", "highway": "service"}}, {"type": "Feature", "geometry": {"type": "LineString", "coordinates": [[37.7535689, 55.6525357], [37.7546681, 55.6529349], [37.755, 55.6530604]]}, "properties": {"id": "r492979208", "name": "", "highway": "service"}}, {"type": "Feature", "geometry": {"type": "LineString", "coordinates": [[37.7543715, 55.6531506], [37.7545718, 55.6530063], [37.7546681, 55.6529349], [37.7547519, 55.6528689]]}, "properties": {"id": "r492979209", "name": "", "highway": "service"}}, {"type": "Feature", "geometry": {"type": "LineString", "coordinates": [[37.7548826, 55.6527677], [37.7549534, 55.6527137]]}, "properties": {"id": "r492979210", "name": "", "highway": "service"}}, {"type": "Feature", "geometry": {"type": "LineString", "coordinates": [[37.7547519, 55.6528689], [37.7548826, 55.6527677]]}, "properties": {"id": "r492979211", "name": "", "highway": "service"}}, {"type": "Feature", "geometry": {"type": "LineString", "coordinates": [[37.7488054, 55.6492449], [37.748495, 55.6492009], [37.7477232, 55.6490914]]}, "properties": {"id": "r493922071", "name": "", "highway": "service"}}, {"type": "Feature", "geometry": {"type": "LineString", "coordinates": [[37.7477037, 55.6512577], [37.747774, 55.6510888], [37.7478906, 55.6507523], [37.7478149, 55.6507419]]}, "properties": {"id": "r493924302", "name": "", "highway": "service"}}, {"type": "Feature", "geometry": {"type": "LineString", "coordinates": [[37.7542963, 55.6531218], [37.7541149, 55.6532678], [37.7540941, 55.6532838]]}, "properties": {"id": "r493930032", "name": "", "highway": "service"}}, {"type": "Feature", "geometry": {"type": "LineString", "coordinates": [[37.7503994, 55.6507177], [37.7506032, 55.6502284], [37.7506382, 55.6501444]]}, "properties": {"id": "r494109207", "name": "", "highway": "service"}}, {"type": "Feature", "geometry": {"type": "LineString", "coordinates": [[37.7471392, 55.6552171], [37.7471738, 55.655162], [37.7477081, 55.6550158], [37.7485842, 55.6547761], [37.7486519, 55.6547614], [37.7496206, 55.6549874], [37.7496813, 55.6550298], [37.7496599, 55.6550967], [37.749511, 55.6552895]]}, "properties": {"id": "r494128503", "name": "", "highway": "service"}}, {"type": "Feature", "geometry": {"type": "LineString", "coordinates": [[37.7477081, 55.6550158], [37.7475136, 55.6547404]]}, "properties": {"id": "r494128509", "name": "", "highway": "service"}}, {"type": "Feature", "geometry": {"type": "LineString", "coordinates": [[37.7543108, 55.6542684], [37.7534145, 55.6539588], [37.7533635, 55.6538563], [37.7540748, 55.6533074], [37.7548116, 55.6536097], [37.7548881, 55.6537051], [37.7548786, 55.6537987], [37.7543108, 55.6542684]]}, "properties": {"id": "r592187270", "name": "", "highway": "service"}}, {"type": "Feature", "geometry": {"type": "LineString", "coordinates": [[37.7406022, 55.6534284], [37.7408256, 55.6534431]]}, "properties": {"id": "r642002880", "name": "", "highway": "service"}}, {"type": "Feature", "geometry": {"type": "LineString", "coordinates": [[37.7403975, 55.6534063], [37.7406022, 55.6534284]]}, "properties": {"id": "r642002882", "name": "", "highway": "service"}}, {"type": "Feature", "geometry": {"type": "LineString", "coordinates": [[37.7401982, 55.653385], [37.7403975, 55.6534063]]}, "properties": {"id": "r642002883", "name": "", "highway": "service"}}, {"type": "Feature", "geometry": {"type": "LineString", "coordinates": [[37.7440204, 55.6526121], [37.7441896, 55.6526274]]}, "properties": {"id": "r642004952", "name": "", "highway": "service"}}, {"type": "Feature", "geometry": {"type": "LineString", "coordinates": [[37.7438242, 55.6525852], [37.7440204, 55.6526121]]}, "properties": {"id": "r642004953", "name": "", "highway": "service"}}, {"type": "Feature", "geometry": {"type": "LineString", "coordinates": [[37.7436939, 55.6525692], [37.7438242, 55.6525852]]}, "properties": {"id": "r642004954", "name": "", "highway": "service"}}, {"type": "Feature", "geometry": {"type": "LineString", "coordinates": [[37.7448385, 55.6441817], [37.7448687, 55.6441021], [37.7449075, 55.644]]}, "properties": {"id": "r755390125", "name": "Люблинская улица (дублёр)", "highway": "tertiary"}}, {"type": "Feature", "geometry": {"type": "LineString", "coordinates": [[37.74647, 55.6481609], [37.7465666, 55.6479098]]}, "properties": {"id": "r760199062", "name": "", "highway": "service"}}, {"type": "Feature", "geometry": {"type": "LineString", "coordinates": [[37.7354431, 55.6502976], [37.7354564, 55.6498924]]}, "properties": {"id": "r771149874", "name": "", "highway": "service"}}, {"type": "Feature", "geometry": {"type": "LineString", "coordinates": [[37.7410481, 55.647228], [37.7410319, 55.6472821], [37.7409379, 55.6475798]]}, "properties": {"id": "r922921011", "name": "", "highway": "service"}}, {"type": "Feature", "geometry": {"type": "LineString", "coordinates": [[37.7410135, 55.6460006], [37.7409282, 55.6459986], [37.7408927, 55.6459976]]}, "properties": {"id": "r927871946", "name": "", "highway": "service"}}, {"type": "Feature", "geometry": {"type": "LineString", "coordinates": [[37.7493371, 55.6440063], [37.7492911, 55.644]]}, "properties": {"id": "r946740121", "name": "Поречная улица", "highway": "secondary"}}, {"type": "Feature", "geometry": {"type": "LineString", "coordinates": [[37.7417533, 55.652181], [37.7419973, 55.6516179], [37.7420603, 55.6514561], [37.7421107, 55.6513268]]}, "properties": {"id": "r984392200", "name": "Люблинская улица (дублёр)", "highway": "tertiary"}}, {"type": "Feature", "geometry": {"type": "LineString", "coordinates": [[37.7429148, 55.6492846], [37.7431963, 55.6486144], [37.7432775, 55.648421], [37.7432932, 55.6483855]]}, "properties": {"id": "r984392201", "name": "Люблинская улица (дублёр)", "highway": "tertiary"}}, {"type": "Feature", "geometry": {"type": "LineString", "coordinates": [[37.7424762, 55.6503884], [37.7425285, 55.6502543], [37.7425958, 55.6500815], [37.7429148, 55.6492846]]}, "properties": {"id": "r984392202", "name": "Люблинская улица (дублёр)", "highway": "tertiary"}}, {"type": "Feature", "geometry": {"type": "LineString", "coordinates": [[37.7421107, 55.6513268], [37.7421626, 55.6511937], [37.7422106, 55.6510703], [37.742387, 55.6506174], [37.7424485, 55.6504597], [37.7424762, 55.6503884]]}, "properties": {"id": "r984392203", "name": "Люблинская улица (дублёр)", "highway": "tertiary"}}, {"type": "Feature", "geometry": {"type": "LineString", "coordinates": [[37.7463051, 55.6471769], [37.7459891, 55.6471406], [37.7458674, 55.6474353], [37.7454094, 55.647378]]}, "properties": {"id": "r1043784041", "name": "", "highway": "service"}}, {"type": "Feature", "geometry": {"type": "LineString", "coordinates": [[37.7432233, 55.6445008], [37.7432473, 55.6441492]]}, "properties": {"id": "r1078051538", "name": "", "highway": "service"}}, {"type": "Feature", "geometry": {"type": "LineString", "coordinates": [[37.7429858, 55.6444918], [37.7430086, 55.6441462]]}, "properties": {"id": "r1078051539", "name": "", "highway": "service"}}, {"type": "Feature", "geometry": {"type": "LineString", "coordinates": [[37.7350441, 55.6442983], [37.7351782, 55.6443021]]}, "properties": {"id": "r1132431401", "name": "", "highway": "service"}}, {"type": "Feature", "geometry": {"type": "LineString", "coordinates": [[37.7383448, 55.6454506], [37.7383283, 55.645544]]}, "properties": {"id": "r1132431402", "name": "", "highway": "service"}}, {"type": "Feature", "geometry": {"type": "LineString", "coordinates": [[37.7409466, 55.6445336], [37.7408176, 55.6445333], [37.7406369, 55.6445927]]}, "properties": {"id": "r1132431403", "name": "", "highway": "service"}}, {"type": "Feature", "geometry": {"type": "LineString", "coordinates": [[37.7430957, 55.6534269], [37.7428251, 55.6542212], [37.7426826, 55.6545781], [37.742662, 55.6546297]]}, "properties": {"id": "r1153054575", "name": "Люблинская улица (дублёр)", "highway": "tertiary"}}, {"type": "Feature", "geometry": {"type": "LineString", "coordinates": [[37.7428631, 55.6531002], [37.7420534, 55.6551257]]}, "properties": {"id": "r1153054576", "name": "Люблинская улица", "highway": "primary"}}, {"type": "Feature", "geometry": {"type": "LineString", "coordinates": [[37.739864, 55.6475718], [37.7398771, 55.6475128], [37.7399435, 55.6472248], [37.739957, 55.6471662]]}, "properties": {"id": "r1153233978", "name": "", "highway": "tertiary"}}, {"type": "Feature", "geometry": {"type": "LineString", "coordinates": [[37.735, 55.6483118], [37.735792, 55.6483299]]}, "properties": {"id": "r1154194373", "name": "", "highway": "service"}}, {"type": "Feature", "geometry": {"type": "LineString", "coordinates": [[37.7409262, 55.6480842], [37.7408821, 55.6480783], [37.7405033, 55.6480277], [37.7403841, 55.6480117]]}, "properties": {"id": "r1154832849", "name": "Новочеркасский бульвар", "highway": "tertiary"}}, {"type": "Feature", "geometry": {"type": "LineString", "coordinates": [[37.7446078, 55.6485449], [37.7442702, 55.649437]]}, "properties": {"id": "r1154844548", "name": "Люблинская улица", "highway": "primary"}}, {"type": "Feature", "geometry": {"type": "LineString", "coordinates": [[37.7455956, 55.6491033], [37.7456129, 55.6490556], [37.7457079, 55.6487916]]}, "properties": {"id": "r1154844549", "name": "Люблинская улица (дублёр)", "highway": "tertiary"}}, {"type": "Feature", "geometry": {"type": "LineString", "coordinates": [[37.7420534, 55.6551257], [37.7416677, 55.656]]}, "properties": {"id": "r1154978618", "name": "Люблинская улица", "highway": "primary"}}, {"type": "Feature", "geometry": {"type": "LineString", "coordinates": [[37.7525225, 55.648469], [37.7525708, 55.6483473], [37.7528371, 55.6476759], [37.7529026, 55.6475107], [37.7529435, 55.6474077], [37.7530521, 55.647134], [37.7530879, 55.6470437], [37.7531495, 55.6468884], [37.75316, 55.6468619], [37.7533997, 55.6462577], [37.7535799, 55.6458032], [37.7536007, 55.6457508], [37.7536663, 55.6455855], [37.753833, 55.6451651], [37.7539749, 55.6448073], [37.7540223, 55.6446878]]}, "properties": {"id": "r1233849185", "name": "Луговой проезд", "highway": "tertiary"}}, {"type": "Feature", "geometry": {"type": "LineString", "coordinates": [[37.75098, 55.6518726], [37.751109, 55.6517114], [37.7512081, 55.6515737], [37.7513245, 55.6513932], [37.75146, 55.6511089], [37.7515371, 55.6509259], [37.7515624, 55.6508717]]}, "properties": {"id": "r1233865750", "name": "Луговой проезд", "highway": "tertiary"}}, {"type": "Feature", "geometry": {"type": "LineString", "coordinates": [[37.74647, 55.6481609], [37.7463739, 55.6484106]]}, "properties": {"id": "r1233874042", "name": "", "highway": "service"}}, {"type": "Feature", "geometry": {"type": "LineString", "coordinates": [[37.755, 55.6456708], [37.7549131, 55.6458053], [37.754368, 55.6457234]]}, "properties": {"id": "r1306368927", "name": "", "highway": "service"}}, {"type": "Feature", "geometry": {"type": "LineString", "coordinates": [[37.7376464, 55.6481464], [37.7374157, 55.6482763], [37.7373524, 55.6484077]]}, "properties": {"id": "r1314002115", "name": "", "highway": "service"}}, {"type": "Feature", "geometry": {"type": "LineString", "coordinates": [[37.7460352, 55.6478994], [37.7460966, 55.6477322], [37.7461213, 55.647665]]}, "properties": {"id": "r1314002116", "name": "Люблинская улица (дублёр)", "highway": "tertiary"}}, {"type": "Feature", "geometry": {"type": "LineString", "coordinates": [[37.7459757, 55.6480614], [37.7460081, 55.6479732], [37.7460352, 55.6478994]]}, "properties": {"id": "r1314002117", "name": "Люблинская улица (дублёр)", "highway": "tertiary"}}, {"type": "Feature", "geometry": {"type": "LineString", "coordinates": [[37.7461967, 55.6474674], [37.7462363, 55.6473614]]}, "properties": {"id": "r1314002118", "name": "Люблинская улица (дублёр)", "highway": "tertiary"}}, {"type": "Feature", "geometry": {"type": "LineString", "coordinates": [[37.7461213, 55.647665], [37.7461463, 55.6476025], [37.7461589, 55.6475686]]}, "properties": {"id": "r1314002119", "name": "Люблинская улица (дублёр)", "highway": "tertiary"}}, {"type": "Feature", "geometry": {"type": "LineString", "coordinates": [[37.7462215, 55.6484709], [37.74608, 55.6484529], [37.7459594, 55.6484375], [37.745843, 55.6484227]]}, "properties": {"id": "r1314002120", "name": "Марьинский бульвар", "highway": "residential"}}, {"type": "Feature", "geometry": {"type": "LineString", "coordinates": [[37.7461213, 55.647665], [37.7463634, 55.6476924], [37.7466828, 55.6477341]]}, "properties": {"id": "r1314002121", "name": "Марьинский бульвар", "highway": "residential"}}, {"type": "Feature", "geometry": {"type": "LineString", "coordinates": [[37.7361961, 55.6467387], [37.7370214, 55.646813], [37.7371904, 55.6468324], [37.7373123, 55.6468503], [37.7376347, 55.6468875], [37.7380411, 55.6469344], [37.7388352, 55.6470406], [37.7392902, 55.6470915], [37.739957, 55.6471662]]}, "properties": {"id": "r1327837531", "name": "Новочеркасский бульвар", "highway": "tertiary"}}, {"type": "Feature", "geometry": {"type": "LineString", "coordinates": [[37.7357602, 55.6467088], [37.7359842, 55.6467197], [37.7361961, 55.6467387]]}, "properties": {"id": "r1327837532", "name": "Новочеркасский бульвар", "highway": "tertiary"}}, {"type": "Feature", "geometry": {"type": "LineString", "coordinates": [[37.739957, 55.6471662], [37.7402277, 55.6471724], [37.7409219, 55.647217], [37.7410481, 55.647228], [37.741161, 55.6472364]]}, "properties": {"id": "r1327837533", "name": "Новочеркасский бульвар", "highway": "tertiary"}}, {"type": "Feature", "geometry": {"type": "LineString", "coordinates": [[37.7531544, 55.6557715], [37.7528991, 55.6556825]]}, "properties": {"id": "r1327840464", "name": "", "highway": "service"}}, {"type": "Feature", "geometry": {"type": "LineString", "coordinates": [[37.7461672, 55.6475463], [37.7461967, 55.6474674]]}, "properties": {"id": "r1329205974", "name": "Люблинская улица (дублёр)", "highway": "tertiary"}}, {"type": "Feature", "geometry": {"type": "LineString", "coordinates": [[37.7461589, 55.6475686], [37.7461672, 55.6475463]]}, "properties": {"id": "r1329205976", "name": "Люблинская улица (дублёр)", "highway": "tertiary"}}, {"type": "Feature", "geometry": {"type": "LineString", "coordinates": [[37.7457079, 55.6487916], [37.74575, 55.6486854]]}, "properties": {"id": "r1329207730", "name": "Люблинская улица (дублёр)", "highway": "tertiary"}}, {"type": "Feature", "geometry": {"type": "LineString", "coordinates": [[37.7505038, 55.6473855], [37.7505843, 55.6473509], [37.7506535, 55.647132], [37.7516766, 55.6472798], [37.7517446, 55.6472665], [37.752575, 55.64737], [37.7529435, 55.6474077]]}, "properties": {"id": "r1353880501", "name": "", "highway": "service"}}, {"type": "Feature", "geometry": {"type": "LineString", "coordinates": [[37.7488585, 55.649123], [37.748588, 55.6490911]]}, "properties": {"id": "r1353968672", "name": "", "highway": "service"}}, {"type": "Feature", "geometry": {"type": "LineString", "coordinates": [[37.7465281, 55.6450404], [37.7467871, 55.6444534], [37.7470253, 55.6444837], [37.7467731, 55.6450733], [37.7465281, 55.6450404]]}, "properties": {"id": "r1396730412", "name": "", "highway": "service"}}, {"type": "Feature", "geometry": {"type": "LineString", "coordinates": [[37.742881, 55.6473647], [37.7434302, 55.6474055], [37.743684, 55.6474287]]}, "properties": {"id": "r1531938195", "name": "Новочеркасский бульвар", "highway": "tertiary"}}, {"type": "Feature", "geometry": {"type": "LineString", "coordinates": [[37.743684, 55.6474287], [37.7436991, 55.6473819], [37.7437129, 55.6473393], [37.7439059, 55.6467974]]}, "properties": {"id": "r1531940300", "name": "Люблинская улица (дублёр)", "highway": "tertiary"}}, {"type": "Feature", "geometry": {"type": "LineString", "coordinates": [[37.7439059, 55.6467974], [37.7439328, 55.6467137], [37.7440969, 55.6462032]]}, "properties": {"id": "r1531940301", "name": "Люблинская улица (дублёр)", "highway": "tertiary"}}, {"type": "Feature", "geometry": {"type": "LineString", "coordinates": [[37.7452688, 55.6467476], [37.7450137, 55.6474139], [37.7449713, 55.6475466]]}, "properties": {"id": "r1531943905", "name": "Люблинская улица", "highway": "primary"}}, {"type": "Feature", "geometry": {"type": "LineString", "coordinates": [[37.74575, 55.6486854], [37.745843, 55.6484227]]}, "properties": {"id": "r1547399411", "name": "Люблинская улица (дублёр)", "highway": "tertiary"}}, {"type": "Feature", "geometry": {"type": "LineString", "coordinates": [[37.7388635, 55.6480701], [37.7384372, 55.6480715], [37.7381621, 55.6480724]]}, "properties": {"id": "r1550177962", "name": "", "highway": "service"}}, {"type": "Feature", "geometry": {"type": "LineString", "coordinates": [[37.7505214, 55.6525529], [37.7507879, 55.6520678]]}, "properties": {"id": "r1550183921", "name": "", "highway": "service"}}, {"type": "Feature", "geometry": {"type": "LineString", "coordinates": [[37.7472906, 55.6491785], [37.7473573, 55.6490337], [37.7475393, 55.6486389]]}, "properties": {"id": "r1550183923", "name": "", "highway": "service"}}, {"type": "Feature", "geometry": {"type": "LineString", "coordinates": [[37.7522118, 55.6553439], [37.7515752, 55.6550939]]}, "properties": {"id": "r1550210476", "name": "", "highway": "service"}}, {"type": "Feature", "geometry": {"type": "LineString", "coordinates": [[37.7528991, 55.6556825], [37.7526822, 55.6555476]]}, "properties": {"id": "r1550210477", "name": "", "highway": "service"}}, {"type": "Feature", "geometry": {"type": "LineString", "coordinates": [[37.7526822, 55.6555476], [37.7523852, 55.655419], [37.7522118, 55.6553439]]}, "properties": {"id": "r1550210478", "name": "", "highway": "service"}}]}