{
 "type": "FeatureCollection",
 "crs": {
  "type": "name",
  "properties": {
   "name": "urn:ogc:def:crs:EPSG::32637"
  }
 },
 "features": [
  {
   "type": "Feature",
   "properties": {
    "id": "b1",
    "name": "Жилой дом 1 (Г-обр.)",
    "floors": 2
   },
   "geometry": {
    "type": "Polygon",
    "coordinates": [
     [
      [
       413124.36285140715,
       6171177.632380228
      ],
      [
       413183.45131658786,
       6171188.051270887
      ],
      [
       413179.54423259036,
       6171210.20944533
      ],
      [
       413150.0,
       6171205.0
      ],
      [
       413146.0929160025,
       6171227.158174443
      ],
      [
       413116.54868341214,
       6171221.948729113
      ],
      [
       413124.36285140715,
       6171177.632380228
      ]
     ]
    ]
   }
  },
  {
   "type": "Feature",
   "properties": {
    "id": "b2",
    "name": "Жилой дом 2 (П-обр.)",
    "floors": 12
   },
   "geometry": {
    "type": "Polygon",
    "coordinates": [
     [
      [
       413120.4257522338,
       6171397.491915474
      ],
      [
       413175.21646062884,
       6171392.698349622
      ],
      [
       413179.5742477662,
       6171442.508084526
      ],
      [
       413173.5970795777,
       6171443.031018984
      ],
      [
       413171.418186009,
       6171418.126151531
      ],
      [
       413128.581813991,
       6171421.873848469
      ],
      [
       413130.7607075597,
       6171446.778715922
      ],
      [
       413124.78353937116,
       6171447.301650378
      ],
      [
       413120.4257522338,
       6171397.491915474
      ]
     ]
    ]
   }
  },
  {
   "type": "Feature",
   "properties": {
    "id": "b3",
    "name": "Жилой дом 3",
    "floors": 3
   },
   "geometry": {
    "type": "Polygon",
    "coordinates": [
     [
      [
       413126.6203580458,
       6171610.387699215
      ],
      [
       413176.43009295035,
       6171614.745486352
      ],
      [
       413173.3796419542,
       6171649.612300785
      ],
      [
       413123.56990704965,
       6171645.254513648
      ],
      [
       413126.6203580458,
       6171610.387699215
      ]
     ]
    ]
   }
  },
  {
   "type": "Feature",
   "properties": {
    "id": "b4",
    "name": "Офис (Т-обр.)",
    "floors": 3
   },
   "geometry": {
    "type": "Polygon",
    "coordinates": [
     [
      [
       413329.0,
       6171177.5
      ],
      [
       413351.0,
       6171177.5
      ],
      [
       413351.0,
       6171206.75
      ],
      [
       413367.5,
       6171206.75
      ],
      [
       413367.5,
       6171222.5
      ],
      [
       413312.5,
       6171222.5
      ],
      [
       413312.5,
       6171206.75
      ],
      [
       413329.0,
       6171206.75
      ],
      [
       413329.0,
       6171177.5
      ]
     ]
    ]
   }
  },
  {
   "type": "Feature",
   "properties": {
    "id": "b5",
    "name": "Жилой дом 5",
    "floors": 5
   },
   "geometry": {
    "type": "Polygon",
    "coordinates": [
     [
      [
       413326.1986061134,
       6171392.916912121
      ],
      [
       413384.15415569075,
       6171408.446054827
      ],
      [
       413373.8013938866,
       6171447.083087879
      ],
      [
       413315.84584430925,
       6171431.553945173
      ],
      [
       413326.1986061134,
       6171392.916912121
      ]
     ]
    ]
   }
  },
  {
   "type": "Feature",
   "properties": {
    "id": "b6",
    "name": "Жилой дом 6 (Г-обр.)",
    "floors": 12
   },
   "geometry": {
    "type": "Polygon",
    "coordinates": [
     [
      [
       413310.3485177112,
       6171600.744102252
      ],
      [
       413359.2558977479,
       6171590.348517711
      ],
      [
       413364.45369001833,
       6171614.80220773
      ],
      [
       413340.0,
       6171620.0
      ],
      [
       413345.19779227045,
       6171644.4536900185
      ],
      [
       413320.7441022521,
       6171649.651482289
      ],
      [
       413310.3485177112,
       6171600.744102252
      ]
     ]
    ]
   }
  },
  {
   "type": "Feature",
   "properties": {
    "id": "b7",
    "name": "Торговый центр",
    "floors": 3
   },
   "geometry": {
    "type": "Polygon",
    "coordinates": [
     [
      [
       413520.12333919137,
       6171175.01216697
      ],
      [
       413574.58808297216,
       6171167.357646418
      ],
      [
       413579.87666080863,
       6171204.98783303
      ],
      [
       413525.41191702784,
       6171212.642353582
      ],
      [
       413520.12333919137,
       6171175.01216697
      ]
     ]
    ]
   }
  },
  {
   "type": "Feature",
   "properties": {
    "id": "b8",
    "name": "Жилой дом 8 (П-обр.)",
    "floors": 9
   },
   "geometry": {
    "type": "Polygon",
    "coordinates": [
     [
      [
       413524.1192182142,
       6171398.592435081
      ],
      [
       413583.53530233866,
       6171406.942821139
      ],
      [
       413575.8807817858,
       6171461.407564919
      ],
      [
       413569.9391733734,
       6171460.572526313
      ],
      [
       413573.7664336498,
       6171433.340154423
      ],
      [
       413526.2335663502,
       6171426.659845577
      ],
      [
       413522.4063060738,
       6171453.892217468
      ],
      [
       413516.46469766134,
       6171453.057178861
      ],
      [
       413524.1192182142,
       6171398.592435081
      ]
     ]
    ]
   }
  },
  {
   "type": "Feature",
   "properties": {
    "id": "b9",
    "name": "Школа",
    "floors": 4
   },
   "geometry": {
    "type": "Polygon",
    "coordinates": [
     [
      [
       413555.4,
       6171607.0
      ],
      [
       413574.6,
       6171607.0
      ],
      [
       413574.6,
       6171630.4
      ],
      [
       413589.0,
       6171630.4
      ],
      [
       413589.0,
       6171643.0
      ],
      [
       413541.0,
       6171643.0
      ],
      [
       413541.0,
       6171630.4
      ],
      [
       413555.4,
       6171630.4
      ],
      [
       413555.4,
       6171607.0
      ]
     ]
    ]
   }
  },
  {
   "type": "Feature",
   "properties": {
    "id": "b10",
    "name": "Жилой дом 10 (Г-обр.)",
    "floors": 2
   },
   "geometry": {
    "type": "Polygon",
    "coordinates": [
     [
      [
       413721.85390615324,
       6171169.451362091
      ],
      [
       413773.53700029646,
       6171188.262469973
      ],
      [
       413765.8415470716,
       6171209.405553942
      ],
      [
       413740.0,
       6171200.0
      ],
      [
       413732.3045467752,
       6171221.143083967
      ],
      [
       413706.46299970354,
       6171211.737530027
      ],
      [
       413721.85390615324,
       6171169.451362091
      ]
     ]
    ]
   }
  },
  {
   "type": "Feature",
   "properties": {
    "id": "b11",
    "name": "Бизнес-центр",
    "floors": 12
   },
   "geometry": {
    "type": "Polygon",
    "coordinates": [
     [
      [
       413716.55295109045,
       6171407.221309956
      ],
      [
       413772.57664901525,
       6171392.20980534
      ],
      [
       413783.44704890955,
       6171432.778690044
      ],
      [
       413727.42335098475,
       6171447.79019466
      ],
      [
       413716.55295109045,
       6171407.221309956
      ]
     ]
    ]
   }
  },
  {
   "type": "Feature",
   "properties": {
    "id": "b12",
    "name": "Жилой дом 12 (Т-обр.)",
    "floors": 9
   },
   "geometry": {
    "type": "Polygon",
    "coordinates": [
     [
      [
       413741.2207518897,
       6171604.136419377
      ],
      [
       413763.1370352477,
       6171606.053845718
      ],
      [
       413760.3044736084,
       6171638.430173406
      ],
      [
       413776.7416861269,
       6171639.868243162
      ],
      [
       413775.21646062884,
       6171657.301650378
      ],
      [
       413720.4257522338,
       6171652.508084526
      ],
      [
       413721.95097773185,
       6171635.07467731
      ],
      [
       413738.3881902504,
       6171636.512747065
      ],
      [
       413741.2207518897,
       6171604.136419377
      ]
     ]
    ]
   }
  },
  {
   "type": "Feature",
   "properties": {
    "id": "b13",
    "name": "Детский сад",
    "floors": 2
   },
   "geometry": {
    "type": "Polygon",
    "coordinates": [
     [
      [
       413111.96049186063,
       6171344.113958678
      ],
      [
       413137.33710989763,
       6171355.947270007
      ],
      [
       413128.03950813937,
       6171375.886041322
      ],
      [
       413102.66289010237,
       6171364.052729993
      ],
      [
       413111.96049186063,
       6171344.113958678
      ]
     ]
    ]
   }
  },
  {
   "type": "Feature",
   "properties": {
    "id": "b14",
    "name": "Жилой дом 14",
    "floors": 6
   },
   "geometry": {
    "type": "Polygon",
    "coordinates": [
     [
      [
       413498.2131181854,
       6171557.953017959
      ],
      [
       413534.46542966686,
       6171574.857748429
      ],
      [
       413521.7868818146,
       6171602.046982041
      ],
      [
       413485.53457033314,
       6171585.142251571
      ],
      [
       413498.2131181854,
       6171557.953017959
      ]
     ]
    ]
   }
  }
 ]
}