{"type": "FeatureCollection", "features": [{"type": "Feature", "geometry": {"type": "LineString", "coordinates": [[37.4953557, 55.8906218], [37.4958023, 55.890207], [37.4975108, 55.8908209], [37.4980166, 55.8905109], [37.4982522, 55.8903697], [37.4983368, 55.8904198], [37.4987984, 55.8902406], [37.4993132, 55.8900107], [37.4992497, 55.8899608], [37.4995251, 55.8898324], [37.4996002, 55.8898798], [37.5002288, 55.8895865], [37.4999551, 55.889298], [37.5007184, 55.8890393], [37.501174, 55.8892374], [37.5018987, 55.8895466], [37.5021319, 55.8893647], [37.5021877, 55.8893254], [37.5022272, 55.8892976], [37.5041529, 55.8879404], [37.5046802, 55.8876698], [37.5046765, 55.8874227], [37.5053281, 55.8872857], [37.5059837, 55.8871664], [37.5061795, 55.88713], [37.5067755, 55.8873657], [37.5073345, 55.8875867], [37.5093013, 55.8894243], [37.5097409, 55.8893802], [37.5098936, 55.889497]]}, "properties": {"id": "h1", "name": "Теплотрасса h1", "source": "OSM man_made=pipeline"}}, {"type": "Feature", "geometry": {"type": "LineString", "coordinates": [[37.5029791, 55.8905232], [37.5030677, 55.8904586], [37.5032763, 55.8903076], [37.5026439, 55.8899698], [37.5024798, 55.8898821], [37.5023242, 55.8897949], [37.5020701, 55.8896843], [37.5019828, 55.889646], [37.5023204, 55.8893844], [37.5021877, 55.8893254]]}, "properties": {"id": "h2", "name": "Теплотрасса h2", "source": "OSM man_made=pipeline"}}]}